{"type": "FeatureCollection", "features": [{"type": "Feature", "properties": {"id": "unox-10500220", "name": "Uno-X 7-Eleven Nygårdskrysset", "chain": "Uno-X", "lat": 59.72514647, "lon": 10.7832488, "address": "Kveldroveien 44, 1407, VINTERBRO", "source_url": "https://unox.no/finn-uno-x/lokasjon/10500220", "selected": true}, "geometry": {"type": "Point", "coordinates": [10.7832488, 59.72514647]}}, {"type": "Feature", "properties": {"id": "52014", "name": "CIRCLE K RANDABERG", "chain": "Circle K", "lat": 59.0011, "lon": 5.617387, "address": "Tungenesveien 8, 4070, Randaberg", "municipality": "RANDABERG", "county": "ROGALAND", "siteType": "ST", "status": "Active", "fuel_types": ["miles 95", "miles Diesel", "milesPLUS Diesel"], "has_liquid_fuel": true, "source_url": "https://www.circlek.no/station/52014", "dataset_source_url": "https://www.circlek.no/station-search", "retrieved": "2026-09-24", "selected": true}, "geometry": {"type": "Point", "coordinates": [5.617387, 59.0011]}}, {"type": "Feature", "properties": {"id": "unox-10501084", "name": "Uno-X Truck Borgeskogen", "chain": "Uno-X", "lat": 59.2461552246442, "lon": 10.2531945705414, "address": "Borgeskogen 45, 3160, STOKKE", "source_url": "https://unox.no/finn-uno-x/lokasjon/10501084", "selected": true}, "geometry": {"type": "Point", "coordinates": [10.2531945705414, 59.2461552246442]}}, {"type": "Feature", "properties": {"id": "unox-10500779", "name": "Uno-X Østre Rosten", "chain": "Uno-X", "lat": 63.36667693, "lon": 10.38036346, "address": "Østre Rosten 8, 7075, Tiller", "source_url": "https://unox.no/finn-uno-x/lokasjon/10500779", "selected": true}, "geometry": {"type": "Point", "coordinates": [10.38036346, 63.36667693]}}, {"type": "Feature", "properties": {"id": "yx-69316c939657276bdbcc0d5f", "name": "YX Birkeland", "lat": 58.328, "lon": 8.23069, "chain": "YX", "address": "Birkelandsveien 1271, 4760 BIRKELAND", "fuel_types": "95 Blyfri, Diesel, Avgiftsfri diesel, Ad Blue", "has_liquid_fuel": true, "source_url": "https://www.yx.no/stasjon/yx-birkeland-10400574", "dataset_source_url": "https://www.yx.no/stasjon", "api_source_url": "https://yx-webflow-sync.harald-d95.workers.dev/stations", "api_discovery_url": "https://cdn.cure.no/yx/init.js", "retrieved": "2026-09-24", "selected": true}, "geometry": {"type": "Point", "coordinates": [8.23069, 58.328]}}, {"type": "Feature", "properties": {"id": "53122", "name": "CIRCLE K BRUMUNDDAL", "chain": "Circle K", "lat": 60.882687, "lon": 10.939159, "address": "Nygata 14, 2380, Brumunddal", "municipality": "RINGSAKER", "county": "INNLANDET", "siteType": "ST", "status": "Active", "fuel_types": ["miles 95", "miles Diesel", "Anleggsdiesel"], "has_liquid_fuel": true, "source_url": "https://www.circlek.no/station/53122", "dataset_source_url": "https://www.circlek.no/station-search", "retrieved": "2026-09-24", "selected": true}, "geometry": {"type": "Point", "coordinates": [10.939159, 60.882687]}}, {"type": "Feature", "properties": {"id": "57059", "name": "CIRCLE K AUTOMAT SKJEBERG", "chain": "Circle K", "lat": 59.268932, "lon": 11.169328, "address": "Iseveien 9, 1738, Borgenhaugen", "municipality": "SARPSBORG", "county": "Østfold", "siteType": "ST", "status": "Active", "fuel_types": ["miles 95", "miles Diesel"], "has_liquid_fuel": true, "source_url": "https://www.circlek.no/station/57059", "dataset_source_url": "https://www.circlek.no/station-search", "retrieved": "2026-09-24", "selected": true}, "geometry": {"type": "Point", "coordinates": [11.169328, 59.268932]}}, {"type": "Feature", "properties": {"id": "52392", "name": "CIRCLE K AUTOMAT HATLANE", "chain": "Circle K", "lat": 62.461643, "lon": 6.273102, "address": "Borgundvegen 549, 6016, Ålesund", "municipality": "ÅLESUND", "county": "MØRE OG ROMSDAL", "siteType": "ST", "status": "Active", "fuel_types": ["miles 95", "miles Diesel"], "has_liquid_fuel": true, "source_url": "https://www.circlek.no/station/52392", "dataset_source_url": "https://www.circlek.no/station-search", "retrieved": "2026-09-24", "selected": true}, "geometry": {"type": "Point", "coordinates": [6.273102, 62.461643]}}, {"type": "Feature", "properties": {"id": "51550", "name": "CIRCLE K LAMPELAND", "chain": "Circle K", "lat": 59.83474, "lon": 9.57864, "address": "Stasjonsvegen 2, 3623, Lampeland", "municipality": "FLESBERG", "county": "Buskerud", "siteType": "ST", "status": "Active", "fuel_types": ["miles 95", "miles Diesel", "milesPLUS 98", "milesPLUS Diesel", "Anleggsdiesel"], "has_liquid_fuel": true, "source_url": "https://www.circlek.no/station/51550", "dataset_source_url": "https://www.circlek.no/station-search", "retrieved": "2026-09-24", "selected": true}, "geometry": {"type": "Point", "coordinates": [9.57864, 59.83474]}}, {"type": "Feature", "properties": {"id": "unox-10500668", "name": "Uno-X Tromsdalen", "chain": "Uno-X", "lat": 69.6408921, "lon": 18.9714408, "address": "Solstrandv. 47, 9020, Tromsdalen", "source_url": "https://unox.no/finn-uno-x/lokasjon/10500668", "selected": true}, "geometry": {"type": "Point", "coordinates": [18.9714408, 69.6408921]}}, {"type": "Feature", "properties": {"id": "57063", "name": "CIRCLE K AUTOMAT BOBY'N", "chain": "Circle K", "lat": 63.782944, "lon": 11.470647, "address": "Magnus den Godes veg 21, 7653, Verdal", "municipality": "VERDAL", "county": "TRØNDELAG", "siteType": "ST", "status": "Active", "fuel_types": ["miles 95", "miles Diesel"], "has_liquid_fuel": true, "source_url": "https://www.circlek.no/station/57063", "dataset_source_url": "https://www.circlek.no/station-search", "retrieved": "2026-09-24", "selected": true}, "geometry": {"type": "Point", "coordinates": [11.470647, 63.782944]}}, {"type": "Feature", "properties": {"id": "unox-10505534", "name": "Uno-X Truck Rom Lyngdal", "chain": "Uno-X", "lat": 58.156809, "lon": 7.100032, "address": "Mandalsveien 45, 4580, Lyngdal", "source_url": "https://unox.no/finn-uno-x/lokasjon/10505534", "selected": true}, "geometry": {"type": "Point", "coordinates": [7.100032, 58.156809]}}, {"type": "Feature", "properties": {"id": "51754", "name": "CIRCLE K DRANGEDAL", "chain": "Circle K", "lat": 59.08993, "lon": 9.064862, "address": "Drangedalsveien 3303, 3750, Drangedal", "municipality": "DRANGEDAL", "county": "Telemark", "siteType": "ST", "status": "Active", "fuel_types": ["miles 95", "miles Diesel", "milesPLUS Diesel", "Anleggsdiesel"], "has_liquid_fuel": true, "source_url": "https://www.circlek.no/station/51754", "dataset_source_url": "https://www.circlek.no/station-search", "retrieved": "2026-09-24", "selected": true}, "geometry": {"type": "Point", "coordinates": [9.064862, 59.08993]}}, {"type": "Feature", "properties": {"id": "yx-69316c939657276bdbcc0da7", "name": "YX Tovik", "lat": 68.6793, "lon": 16.8726, "chain": "YX", "address": "Tovika 56, 9445 TOVIK", "fuel_types": "95 Blyfri, Diesel, Avgiftsfri diesel", "has_liquid_fuel": true, "source_url": "https://www.yx.no/stasjon/yx-tovik-10400603", "dataset_source_url": "https://www.yx.no/stasjon", "api_source_url": "https://yx-webflow-sync.harald-d95.workers.dev/stations", "api_discovery_url": "https://cdn.cure.no/yx/init.js", "retrieved": "2026-09-24", "selected": true}, "geometry": {"type": "Point", "coordinates": [16.8726, 68.6793]}}, {"type": "Feature", "properties": {"id": "yx-6a25a3dcd12af20482de3a21", "name": "YX Naustdal", "lat": 61.5075, "lon": 5.71785, "chain": "YX", "address": "Fjordavegen 2, 6817 NAUSTDAL", "fuel_types": "95 Blyfri, Diesel, Avgiftsfri diesel, Ad Blue", "has_liquid_fuel": true, "source_url": "https://www.yx.no/stasjon/yx-naustdal-10400501", "dataset_source_url": "https://www.yx.no/stasjon", "api_source_url": "https://yx-webflow-sync.harald-d95.workers.dev/stations", "api_discovery_url": "https://cdn.cure.no/yx/init.js", "retrieved": "2026-09-24", "selected": true}, "geometry": {"type": "Point", "coordinates": [5.71785, 61.5075]}}, {"type": "Feature", "properties": {"id": "55353", "name": "CIRCLE K KORGEN", "chain": "Circle K", "lat": 66.08147, "lon": 13.826967, "address": "Olderneset, 8646, Korgen", "municipality": "HEMNES", "county": "NORDLAND", "siteType": "ST", "status": "Active", "fuel_types": ["EV Charger", "AdBlue", "miles 95", "miles Diesel", "milesPLUS Diesel", "Anleggsdiesel"], "has_liquid_fuel": true, "source_url": "https://www.circlek.no/station/55353", "dataset_source_url": "https://www.circlek.no/station-search", "retrieved": "2026-09-24", "selected": true}, "geometry": {"type": "Point", "coordinates": [13.826967, 66.08147]}}, {"type": "Feature", "properties": {"id": "unox-10500177", "name": "Uno-X 7-Eleven Helleland", "chain": "Uno-X", "lat": 58.52727234648749, "lon": 6.127138630182285, "address": "Sørlandsveien 527, 4376, HELLELAND", "source_url": "https://unox.no/finn-uno-x/lokasjon/10500177", "selected": true}, "geometry": {"type": "Point", "coordinates": [6.127138630182285, 58.52727234648749]}}, {"type": "Feature", "properties": {"id": "52206", "name": "CIRCLE K SOGNDAL", "chain": "Circle K", "lat": 61.232536, "lon": 7.118118, "address": "Årøyvegen 8, 6856, Sogndal", "municipality": "SOGNDAL", "county": "VESTLAND", "siteType": "ST", "status": "Active", "fuel_types": ["EV Charger", "AdBlue", "miles 95", "miles Diesel", "milesPLUS Diesel", "Anleggsdiesel"], "has_liquid_fuel": true, "source_url": "https://www.circlek.no/station/52206", "dataset_source_url": "https://www.circlek.no/station-search", "retrieved": "2026-09-24", "selected": true}, "geometry": {"type": "Point", "coordinates": [7.118118, 61.232536]}}, {"type": "Feature", "properties": {"id": "51532", "name": "CIRCLE K BAGN", "chain": "Circle K", "lat": 60.822754, "lon": 9.553247, "address": "Storebruvegen 5, 2930, Bagn", "municipality": "SØR-AURDAL", "county": "INNLANDET", "siteType": "ST", "status": "Active", "fuel_types": ["EV Charger", "AdBlue", "miles 95", "miles Diesel", "milesPLUS Diesel", "Anleggsdiesel"], "has_liquid_fuel": true, "source_url": "https://www.circlek.no/station/51532", "dataset_source_url": "https://www.circlek.no/station-search", "retrieved": "2026-09-24", "selected": true}, "geometry": {"type": "Point", "coordinates": [9.553247, 60.822754]}}, {"type": "Feature", "properties": {"id": "unox-10500191", "name": "Uno-X 7-Eleven Kvitfjelltunet", "chain": "Uno-X", "lat": 61.453625, "lon": 10.188223, "address": "Stasjonsvegen 13, 2634, Fåvang", "source_url": "https://unox.no/finn-uno-x/lokasjon/10500191", "selected": true}, "geometry": {"type": "Point", "coordinates": [10.188223, 61.453625]}}, {"type": "Feature", "properties": {"id": "55619", "name": "CIRCLE K TRUCK SIGERFJORD", "chain": "Circle K", "lat": 68.667482, "lon": 15.475858, "address": "Sigerfjordveien 2, 8406, Sortland", "municipality": "SORTLAND", "county": "Nordland", "siteType": "ST", "status": "Active", "fuel_types": ["AdBlue", "miles Diesel"], "has_liquid_fuel": true, "source_url": "https://www.circlek.no/station/55619", "dataset_source_url": "https://www.circlek.no/station-search", "retrieved": "2026-09-24", "selected": true}, "geometry": {"type": "Point", "coordinates": [15.475858, 68.667482]}}, {"type": "Feature", "properties": {"id": "57066", "name": "CIRCLE K AUTOMAT GRANVIN", "chain": "Circle K", "lat": 60.5288, "lon": 6.726501, "address": "Hardangervegen 2509, 5736, Granvin", "municipality": "VOSS", "county": "VESTLAND", "siteType": "ST", "status": "Active", "fuel_types": ["miles 95", "miles Diesel"], "has_liquid_fuel": true, "source_url": "https://www.circlek.no/station/57066", "dataset_source_url": "https://www.circlek.no/station-search", "retrieved": "2026-09-24", "selected": true}, "geometry": {"type": "Point", "coordinates": [6.726501, 60.5288]}}, {"type": "Feature", "properties": {"id": "yx-69316c8e29c0d74067ed3e53", "name": "YX Stårheim", "lat": 61.9186, "lon": 5.76151, "chain": "YX", "address": "Nordfjordvegen 5819, 6777 STÅRHEIM", "fuel_types": "95 Blyfri, 98 Blyfri, Diesel, Avgiftsfri diesel, Ad Blue", "has_liquid_fuel": true, "source_url": "https://www.yx.no/stasjon/yx-starheim-10400096", "dataset_source_url": "https://www.yx.no/stasjon", "api_source_url": "https://yx-webflow-sync.harald-d95.workers.dev/stations", "api_discovery_url": "https://cdn.cure.no/yx/init.js", "retrieved": "2026-09-24", "selected": true}, "geometry": {"type": "Point", "coordinates": [5.76151, 61.9186]}}, {"type": "Feature", "properties": {"id": "55633", "name": "CIRCLE K AUTOMAT FIANE", "chain": "Circle K", "lat": 58.618504, "lon": 8.878707, "address": "Holtsveien 310, 4905, TVEDESTRAND", "municipality": "TVEDESTRAND", "county": "Agder", "siteType": "ST", "status": "Active", "fuel_types": ["miles 95", "miles Diesel"], "has_liquid_fuel": true, "source_url": "https://www.circlek.no/station/55633", "dataset_source_url": "https://www.circlek.no/station-search", "retrieved": "2026-09-24", "selected": true}, "geometry": {"type": "Point", "coordinates": [8.878707, 58.618504]}}, {"type": "Feature", "properties": {"id": "unox-10500179", "name": "Uno-X Hylla", "chain": "Uno-X", "lat": 64.470504, "lon": 11.542081, "address": "Skagevegen 5, 7805, Namsos", "source_url": "https://unox.no/finn-uno-x/lokasjon/10500179", "selected": true}, "geometry": {"type": "Point", "coordinates": [11.542081, 64.470504]}}, {"type": "Feature", "properties": {"id": "55484", "name": "CIRCLE K AUTOMAT HITRA", "chain": "Circle K", "lat": 63.520947, "lon": 9.107723, "address": "Sandstad, 7246, Sandstad", "municipality": "HITRA ", "county": "TRØNDELAG", "siteType": "ST", "status": "Active", "fuel_types": ["AdBlue", "miles 95", "miles Diesel", "Anleggsdiesel"], "has_liquid_fuel": true, "source_url": "https://www.circlek.no/station/55484", "dataset_source_url": "https://www.circlek.no/station-search", "retrieved": "2026-09-24", "selected": true}, "geometry": {"type": "Point", "coordinates": [9.107723, 63.520947]}}, {"type": "Feature", "properties": {"id": "yx-69316c939657276bdbcc0d02", "name": "YX Vevelstad (automat)", "lat": 65.7014, "lon": 12.442, "chain": "YX", "address": "Forvikveien 130, 8976 VEVELSTAD", "fuel_types": "95 Blyfri, Diesel", "has_liquid_fuel": true, "source_url": "https://www.yx.no/stasjon/yx-vevelstad-automat-10400541", "dataset_source_url": "https://www.yx.no/stasjon", "api_source_url": "https://yx-webflow-sync.harald-d95.workers.dev/stations", "api_discovery_url": "https://cdn.cure.no/yx/init.js", "retrieved": "2026-09-24", "selected": true}, "geometry": {"type": "Point", "coordinates": [12.442, 65.7014]}}, {"type": "Feature", "properties": {"id": "55649", "name": "CIRCLE K TRUCK BØSTAD", "chain": "Circle K", "lat": 68.272313, "lon": 13.970865, "address": "Grundstadveien 30, 8360, BØSTAD", "municipality": "VESTVÅGØY", "county": "Nordland", "siteType": "ST", "status": "Active", "fuel_types": ["AdBlue", "miles Diesel", "Anleggsdiesel"], "has_liquid_fuel": true, "source_url": "https://www.circlek.no/station/55649", "dataset_source_url": "https://www.circlek.no/station-search", "retrieved": "2026-09-24", "selected": true}, "geometry": {"type": "Point", "coordinates": [13.970865, 68.272313]}}, {"type": "Feature", "properties": {"id": "yx-69316c8e29c0d74067ed3e59", "name": "YX Surnadal", "lat": 62.9724, "lon": 8.72248, "chain": "YX", "address": "Skeivegen 8, 6650 SURNADAL", "fuel_types": "95 Blyfri, 98 Blyfri, Diesel, Avgiftsfri diesel", "has_liquid_fuel": true, "source_url": "https://www.yx.no/stasjon/yx-surnadal-10400103", "dataset_source_url": "https://www.yx.no/stasjon", "api_source_url": "https://yx-webflow-sync.harald-d95.workers.dev/stations", "api_discovery_url": "https://cdn.cure.no/yx/init.js", "retrieved": "2026-09-24", "selected": true}, "geometry": {"type": "Point", "coordinates": [8.72248, 62.9724]}}, {"type": "Feature", "properties": {"id": "52169", "name": "CIRCLE K AUTOMAT HATLESTRAND", "chain": "Circle K", "lat": 60.06055, "lon": 5.914788, "address": "Hatlestrandsvegen 646, 5635, Hatlestrand", "municipality": "KVINNHERAD", "county": "VESTLAND", "siteType": "ST", "status": "Active", "fuel_types": ["miles 95", "miles Diesel"], "has_liquid_fuel": true, "source_url": "https://www.circlek.no/station/52169", "dataset_source_url": "https://www.circlek.no/station-search", "retrieved": "2026-09-24", "selected": true}, "geometry": {"type": "Point", "coordinates": [5.914788, 60.06055]}}, {"type": "Feature", "properties": {"id": "52565", "name": "CIRCLE K E6 BERKÅK", "chain": "Circle K", "lat": 62.8298, "lon": 10.010887, "address": "Parallellveien 10, 7391, Rennebu", "municipality": "RENNEBU", "county": "TRØNDELAG", "siteType": "ST", "status": "Active", "fuel_types": ["EV Charger", "AdBlue", "miles 95", "miles Diesel", "milesPLUS Diesel", "Anleggsdiesel"], "has_liquid_fuel": true, "source_url": "https://www.circlek.no/station/52565", "dataset_source_url": "https://www.circlek.no/station-search", "retrieved": "2026-09-24", "selected": true}, "geometry": {"type": "Point", "coordinates": [10.010887, 62.8298]}}, {"type": "Feature", "properties": {"id": "unox-10500155", "name": "Uno-X 7-Eleven Bjørkelangen", "chain": "Uno-X", "lat": 59.88754469, "lon": 11.56125207, "address": "Kompveien 2664, Bliksrud, 1940, BJØRKELANGEN", "source_url": "https://unox.no/finn-uno-x/lokasjon/10500155", "selected": true}, "geometry": {"type": "Point", "coordinates": [11.56125207, 59.88754469]}}, {"type": "Feature", "properties": {"id": "yx-69316c8e29c0d74067ed3ecb", "name": "YX Tolga", "lat": 62.4096, "lon": 10.9909, "chain": "YX", "address": "Rørosveien 2051, 2540 TOLGA", "fuel_types": "95 Blyfri, 98 Blyfri, Diesel, Avgiftsfri diesel", "has_liquid_fuel": true, "source_url": "https://www.yx.no/stasjon/yx-tolga-10400425", "dataset_source_url": "https://www.yx.no/stasjon", "api_source_url": "https://yx-webflow-sync.harald-d95.workers.dev/stations", "api_discovery_url": "https://cdn.cure.no/yx/init.js", "retrieved": "2026-09-24", "selected": true}, "geometry": {"type": "Point", "coordinates": [10.9909, 62.4096]}}, {"type": "Feature", "properties": {"id": "yx-69316c98cb6978a89c073b01", "name": "YX Dalen øst", "lat": 59.4458, "lon": 7.98419, "chain": "YX", "address": "Storvegen 227, 3880 DALEN", "fuel_types": "95 Blyfri, Diesel, Avgiftsfri diesel", "has_liquid_fuel": true, "source_url": "https://www.yx.no/stasjon/yx-dalen-st-10400861", "dataset_source_url": "https://www.yx.no/stasjon", "api_source_url": "https://yx-webflow-sync.harald-d95.workers.dev/stations", "api_discovery_url": "https://cdn.cure.no/yx/init.js", "retrieved": "2026-09-24", "selected": true}, "geometry": {"type": "Point", "coordinates": [7.98419, 59.4458]}}, {"type": "Feature", "properties": {"id": "52155", "name": "CIRCLE K AUTOMAT EIDSBOTN", "chain": "Circle K", "lat": 60.873879, "lon": 5.120899, "address": "Gulafjordvegen 631, 5960, Dalsøyra", "municipality": "GULEN", "county": "VESTLAND", "siteType": "ST", "status": "Active", "fuel_types": ["miles 95", "miles Diesel"], "has_liquid_fuel": true, "source_url": "https://www.circlek.no/station/52155", "dataset_source_url": "https://www.circlek.no/station-search", "retrieved": "2026-09-24", "selected": true}, "geometry": {"type": "Point", "coordinates": [5.120899, 60.873879]}}, {"type": "Feature", "properties": {"id": "53956", "name": "CIRCLE K ÅL", "chain": "Circle K", "lat": 60.62872, "lon": 8.561739, "address": "Sundrejordet 2, 3570, Ål", "municipality": "ÅL", "county": "Buskerud", "siteType": "ST", "status": "Active", "fuel_types": ["EV Charger", "miles 95", "miles Diesel", "milesPLUS Diesel", "Anleggsdiesel"], "has_liquid_fuel": true, "source_url": "https://www.circlek.no/station/53956", "dataset_source_url": "https://www.circlek.no/station-search", "retrieved": "2026-09-24", "selected": true}, "geometry": {"type": "Point", "coordinates": [8.561739, 60.62872]}}, {"type": "Feature", "properties": {"id": "yx-69316c8e29c0d74067ed3f25", "name": "YX Hallingby", "lat": 60.2769, "lon": 10.1891, "chain": "YX", "address": "Moseveien 5, 3525 HALLINGBY", "fuel_types": "95 Blyfri, Diesel, Ad Blue", "has_liquid_fuel": true, "source_url": "https://www.yx.no/stasjon/yx-hallingby-10400520", "dataset_source_url": "https://www.yx.no/stasjon", "api_source_url": "https://yx-webflow-sync.harald-d95.workers.dev/stations", "api_discovery_url": "https://cdn.cure.no/yx/init.js", "retrieved": "2026-09-24", "selected": true}, "geometry": {"type": "Point", "coordinates": [10.1891, 60.2769]}}, {"type": "Feature", "properties": {"id": "54622", "name": "CIRCLE K AUTOMAT OLDEN", "chain": "Circle K", "lat": 61.841736, "lon": 6.811403, "address": "Naustgrenda 26, 6788, Olden", "municipality": "STRYN", "county": "VESTLAND", "siteType": "ST", "status": "Active", "fuel_types": ["miles 95", "miles Diesel", "Anleggsdiesel"], "has_liquid_fuel": true, "source_url": "https://www.circlek.no/station/54622", "dataset_source_url": "https://www.circlek.no/station-search", "retrieved": "2026-09-24", "selected": true}, "geometry": {"type": "Point", "coordinates": [6.811403, 61.841736]}}, {"type": "Feature", "properties": {"id": "yx-69316c8e29c0d74067ed3e6b", "name": "YX Åfjord", "lat": 63.9649, "lon": 10.2167, "chain": "YX", "address": "Åvegen 7, 7170 ÅFJORD", "fuel_types": "95 Blyfri, 98 Blyfri, Diesel, Avgiftsfri diesel, Ad Blue", "has_liquid_fuel": true, "source_url": "https://www.yx.no/stasjon/yx-afjord-10400112", "dataset_source_url": "https://www.yx.no/stasjon", "api_source_url": "https://yx-webflow-sync.harald-d95.workers.dev/stations", "api_discovery_url": "https://cdn.cure.no/yx/init.js", "retrieved": "2026-09-24", "selected": true}, "geometry": {"type": "Point", "coordinates": [10.2167, 63.9649]}}, {"type": "Feature", "properties": {"id": "52681", "name": "CIRCLE K RØRVIK", "chain": "Circle K", "lat": 64.862625, "lon": 11.232574, "address": "Betzy Bergs gate 2A, 7900, Rørvik", "municipality": "NÆRØYSUND ", "county": "TRØNDELAG", "siteType": "ST", "status": "Active", "fuel_types": ["miles 95", "miles Diesel", "Anleggsdiesel"], "has_liquid_fuel": true, "source_url": "https://www.circlek.no/station/52681", "dataset_source_url": "https://www.circlek.no/station-search", "retrieved": "2026-09-24", "selected": true}, "geometry": {"type": "Point", "coordinates": [11.232574, 64.862625]}}, {"type": "Feature", "properties": {"id": "yx-69316c939657276bdbcc0ce7", "name": "YX Veggli", "lat": 60.0416, "lon": 9.15496, "chain": "YX", "address": "Numedalsvegen 5933, 3628 VEGGLI", "fuel_types": "95 Blyfri, Diesel, Avgiftsfri diesel", "has_liquid_fuel": true, "source_url": "https://www.yx.no/stasjon/yx-veggli-10400532", "dataset_source_url": "https://www.yx.no/stasjon", "api_source_url": "https://yx-webflow-sync.harald-d95.workers.dev/stations", "api_discovery_url": "https://cdn.cure.no/yx/init.js", "retrieved": "2026-09-24", "selected": true}, "geometry": {"type": "Point", "coordinates": [9.15496, 60.0416]}}, {"type": "Feature", "properties": {"id": "53119", "name": "CIRCLE K TRYSIL", "chain": "Circle K", "lat": 61.3154, "lon": 12.261463, "address": "Storvegen 2, 2420, Trysil", "municipality": "TRYSIL", "county": "INNLANDET", "siteType": "ST", "status": "Active", "fuel_types": ["EV Charger", "miles 95", "miles Diesel", "milesPLUS Diesel"], "has_liquid_fuel": true, "source_url": "https://www.circlek.no/station/53119", "dataset_source_url": "https://www.circlek.no/station-search", "retrieved": "2026-09-24", "selected": true}, "geometry": {"type": "Point", "coordinates": [12.261463, 61.3154]}}, {"type": "Feature", "properties": {"id": "yx-69316c939657276bdbcc0dce", "name": "YX Bømlo", "lat": 59.6049, "lon": 5.23217, "chain": "YX", "address": "Hovlandsvegen 151, 5443 BØMLO", "fuel_types": "95 Blyfri, Diesel, Avgiftsfri diesel, Ad Blue", "has_liquid_fuel": true, "source_url": "https://www.yx.no/stasjon/yx-b-mlo-10400618", "dataset_source_url": "https://www.yx.no/stasjon", "api_source_url": "https://yx-webflow-sync.harald-d95.workers.dev/stations", "api_discovery_url": "https://cdn.cure.no/yx/init.js", "retrieved": "2026-09-24", "selected": true}, "geometry": {"type": "Point", "coordinates": [5.23217, 59.6049]}}, {"type": "Feature", "properties": {"id": "yx-69316c98cb6978a89c073b04", "name": "YX Vestre Jakobselv", "lat": 70.1065, "lon": 29.3452, "chain": "YX", "address": "Nordvarangerveien 650, 9802 VESTRE JAKOBSELV", "fuel_types": "95 Blyfri, 98 Blyfri, Diesel, Avgiftsfri diesel", "has_liquid_fuel": true, "source_url": "https://www.yx.no/stasjon/yx-vestre-jakobselv-10400862", "dataset_source_url": "https://www.yx.no/stasjon", "api_source_url": "https://yx-webflow-sync.harald-d95.workers.dev/stations", "api_discovery_url": "https://cdn.cure.no/yx/init.js", "retrieved": "2026-09-24", "selected": true}, "geometry": {"type": "Point", "coordinates": [29.3452, 70.1065]}}, {"type": "Feature", "properties": {"id": "yx-69316c8e29c0d74067ed3e32", "name": "YX Vang i Valdres", "lat": 61.1303, "lon": 8.54216, "chain": "YX", "address": "Tyinvegen 5340, 2975 VANG I VALDRES", "fuel_types": "95 Blyfri, 98 Blyfri, Diesel, Avgiftsfri diesel", "has_liquid_fuel": true, "source_url": "https://www.yx.no/stasjon/yx-vang-i-valdres-10400067", "dataset_source_url": "https://www.yx.no/stasjon", "api_source_url": "https://yx-webflow-sync.harald-d95.workers.dev/stations", "api_discovery_url": "https://cdn.cure.no/yx/init.js", "retrieved": "2026-09-24", "selected": true}, "geometry": {"type": "Point", "coordinates": [8.54216, 61.1303]}}, {"type": "Feature", "properties": {"id": "yx-69316c939657276bdbcc0cf6", "name": "YX Ulvsvåg (automat)", "lat": 68.1148, "lon": 15.8668, "chain": "YX", "address": "Hamarøyveien 5679, 8276 ULVSVÅG", "fuel_types": "95 Blyfri, Diesel", "has_liquid_fuel": true, "source_url": "https://www.yx.no/stasjon/yx-ulvsvag-automat-10400537", "dataset_source_url": "https://www.yx.no/stasjon", "api_source_url": "https://yx-webflow-sync.harald-d95.workers.dev/stations", "api_discovery_url": "https://cdn.cure.no/yx/init.js", "retrieved": "2026-09-24", "selected": true}, "geometry": {"type": "Point", "coordinates": [15.8668, 68.1148]}}, {"type": "Feature", "properties": {"id": "bunker-36", "chain": "Bunker Oil", "name": "Bunker Oil Kristiansund", "lat": 63.118269, "lon": 7.822814, "address": "Pilotveien 1, , ", "description": "Blyfri 95, Autodiesel, Farget Diesel, AdBlue, Hurtigleverende dieselpumpe", "source_url": "https://bunkeroil.no/en/map-petrol-stations", "map_url": "https://www.google.com/maps/d/embed?mid=1lE7MJKdWIR5W2Jb10eNRFsKM536AdAji&ehbc=2E312F", "retrieved": "2026-09-24", "selected": true}, "geometry": {"type": "Point", "coordinates": [7.822814, 63.118269]}}, {"type": "Feature", "properties": {"id": "yx-69316c939657276bdbcc0d62", "name": "YX Selbu", "lat": 63.2503, "lon": 11.0948, "chain": "YX", "address": "Uglmoene 4, 7580 SELBU", "fuel_types": "95 Blyfri, 98 Blyfri, Diesel, Avgiftsfri diesel, Ad Blue", "has_liquid_fuel": true, "source_url": "https://www.yx.no/stasjon/yx-selbu-10400575", "dataset_source_url": "https://www.yx.no/stasjon", "api_source_url": "https://yx-webflow-sync.harald-d95.workers.dev/stations", "api_discovery_url": "https://cdn.cure.no/yx/init.js", "retrieved": "2026-09-24", "selected": true}, "geometry": {"type": "Point", "coordinates": [11.0948, 63.2503]}}, {"type": "Feature", "properties": {"id": "yx-69316c939657276bdbcc0d95", "name": "YX Åse", "lat": 69.0103, "lon": 15.7638, "chain": "YX", "address": "Åseveien 419, 8484 RISØYHAMN", "fuel_types": "95 Blyfri, Diesel", "has_liquid_fuel": true, "source_url": "https://www.yx.no/stasjon/yx-ase-10400597", "dataset_source_url": "https://www.yx.no/stasjon", "api_source_url": "https://yx-webflow-sync.harald-d95.workers.dev/stations", "api_discovery_url": "https://cdn.cure.no/yx/init.js", "retrieved": "2026-09-24", "selected": true}, "geometry": {"type": "Point", "coordinates": [15.7638, 69.0103]}}, {"type": "Feature", "properties": {"id": "55616", "name": "CIRCLE K AUTOMAT HATTENG", "chain": "Circle K", "lat": 69.26788, "lon": 19.96171, "address": "Elvestrandveien 1, 9046, Oteren", "municipality": "STORFJORD", "county": "Troms", "siteType": "ST", "status": "Active", "fuel_types": ["miles 95", "miles Diesel", "Anleggsdiesel"], "has_liquid_fuel": true, "source_url": "https://www.circlek.no/station/55616", "dataset_source_url": "https://www.circlek.no/station-search", "retrieved": "2026-09-24", "selected": true}, "geometry": {"type": "Point", "coordinates": [19.96171, 69.26788]}}, {"type": "Feature", "properties": {"id": "yx-69316c98cb6978a89c073b4f", "name": "YX Otnes", "lat": 61.7564, "lon": 11.1773, "chain": "YX", "address": "Gamle Kongevei 2443, 2485 RENDALEN", "fuel_types": "95 Blyfri, Diesel, Avgiftsfri diesel", "has_liquid_fuel": true, "source_url": "https://www.yx.no/stasjon/yx-otnes-10400896", "dataset_source_url": "https://www.yx.no/stasjon", "api_source_url": "https://yx-webflow-sync.harald-d95.workers.dev/stations", "api_discovery_url": "https://cdn.cure.no/yx/init.js", "retrieved": "2026-09-24", "selected": true}, "geometry": {"type": "Point", "coordinates": [11.1773, 61.7564]}}, {"type": "Feature", "properties": {"id": "yx-69316c8e29c0d74067ed3ea1", "name": "YX Grong", "lat": 64.4649, "lon": 12.3158, "chain": "YX", "address": "Trøahaugveien 2, 7870 GRONG", "fuel_types": "95 Blyfri, Diesel, Avgiftsfri diesel", "has_liquid_fuel": true, "source_url": "https://www.yx.no/stasjon/yx-grong-10400314", "dataset_source_url": "https://www.yx.no/stasjon", "api_source_url": "https://yx-webflow-sync.harald-d95.workers.dev/stations", "api_discovery_url": "https://cdn.cure.no/yx/init.js", "retrieved": "2026-09-24", "selected": true}, "geometry": {"type": "Point", "coordinates": [12.3158, 64.4649]}}, {"type": "Feature", "properties": {"id": "55385", "name": "CIRCLE K AUTOMAT SANDNESSJØEN", "chain": "Circle K", "lat": 66.00728, "lon": 12.576281, "address": "Novikveien 115B, 8802, Sandnessjøen", "municipality": "ALSTAHAUG", "county": "NORDLAND", "siteType": "ST", "status": "Active", "fuel_types": ["miles 95", "miles Diesel"], "has_liquid_fuel": true, "source_url": "https://www.circlek.no/station/55385", "dataset_source_url": "https://www.circlek.no/station-search", "retrieved": "2026-09-24", "selected": true}, "geometry": {"type": "Point", "coordinates": [12.576281, 66.00728]}}, {"type": "Feature", "properties": {"id": "bunker-74", "chain": "Bunker Oil", "name": "Bunker Oil Florø", "lat": 61.6002957, "lon": 5.0216279, "address": "Strandavegen 19, 6905, Florø", "description": "Bensin 98, Auto diesel, Farget diesel, Marina", "source_url": "https://bunkeroil.no/en/map-petrol-stations", "map_url": "https://www.google.com/maps/d/embed?mid=1lE7MJKdWIR5W2Jb10eNRFsKM536AdAji&ehbc=2E312F", "retrieved": "2026-09-24", "selected": true}, "geometry": {"type": "Point", "coordinates": [5.0216279, 61.6002957]}}, {"type": "Feature", "properties": {"id": "yx-69316c939657276bdbcc0d23", "name": "YX Silsand", "lat": 69.2356, "lon": 17.9299, "chain": "YX", "address": "Laukhellaveien 96, 9303 SILSAND", "fuel_types": "95 Blyfri, 98 Blyfri, Diesel, Avgiftsfri diesel, Ad Blue", "has_liquid_fuel": true, "source_url": "https://www.yx.no/stasjon/yx-silsand-10400553", "dataset_source_url": "https://www.yx.no/stasjon", "api_source_url": "https://yx-webflow-sync.harald-d95.workers.dev/stations", "api_discovery_url": "https://cdn.cure.no/yx/init.js", "retrieved": "2026-09-24", "selected": true}, "geometry": {"type": "Point", "coordinates": [17.9299, 69.2356]}}, {"type": "Feature", "properties": {"id": "55400", "name": "CIRCLE K AUTOMAT TANA", "chain": "Circle K", "lat": 70.201399, "lon": 28.185745, "address": "Deatnodearbmi 6, 9845, Tana", "municipality": "DEATNU TANA", "county": "Finnmark", "siteType": "ST", "status": "Active", "fuel_types": ["AdBlue", "miles 95", "miles Diesel", "Anleggsdiesel"], "has_liquid_fuel": true, "source_url": "https://www.circlek.no/station/55400", "dataset_source_url": "https://www.circlek.no/station-search", "retrieved": "2026-09-24", "selected": true}, "geometry": {"type": "Point", "coordinates": [28.185745, 70.201399]}}, {"type": "Feature", "properties": {"id": "bunker-64", "chain": "Bunker Oil", "name": "Bunker Oil Tafjord", "lat": 62.232945, "lon": 7.417128, "address": "Fv92, 6213, Tafjord", "description": "Blyfri 95, Autodiesel, Farget Diesel,Hurtigleverende dieselpumpe", "source_url": "https://bunkeroil.no/en/map-petrol-stations", "map_url": "https://www.google.com/maps/d/embed?mid=1lE7MJKdWIR5W2Jb10eNRFsKM536AdAji&ehbc=2E312F", "retrieved": "2026-09-24", "selected": true}, "geometry": {"type": "Point", "coordinates": [7.417128, 62.232945]}}, {"type": "Feature", "properties": {"id": "yx-69316c939657276bdbcc0db6", "name": "YX Sand", "lat": 59.4833, "lon": 6.24962, "chain": "YX", "address": "Verven 5, 4230 SAND", "fuel_types": "95 Blyfri, Diesel, Avgiftsfri diesel", "has_liquid_fuel": true, "source_url": "https://www.yx.no/stasjon/yx-sand-10400608", "dataset_source_url": "https://www.yx.no/stasjon", "api_source_url": "https://yx-webflow-sync.harald-d95.workers.dev/stations", "api_discovery_url": "https://cdn.cure.no/yx/init.js", "retrieved": "2026-09-24", "selected": true}, "geometry": {"type": "Point", "coordinates": [6.24962, 59.4833]}}, {"type": "Feature", "properties": {"id": "52747", "name": "CIRCLE K KAUTOKEINO", "chain": "Circle K", "lat": 69.021255, "lon": 23.04784, "address": "Fievroluodda 3, 9520, Kautokeino", "municipality": "GUOVDAGEAIDNU KAUTOKEINO", "county": "Finnmark", "siteType": "ST", "status": "Active", "fuel_types": ["AdBlue", "miles 95", "miles Diesel", "milesPLUS Diesel", "Anleggsdiesel"], "has_liquid_fuel": true, "source_url": "https://www.circlek.no/station/52747", "dataset_source_url": "https://www.circlek.no/station-search", "retrieved": "2026-09-24", "selected": true}, "geometry": {"type": "Point", "coordinates": [23.04784, 69.021255]}}, {"type": "Feature", "properties": {"id": "yx-69316c939657276bdbcc0d74", "name": "YX Hattfjelldal (automat)", "lat": 65.5957, "lon": 13.9883, "chain": "YX", "address": "O.T Olsens vei 12, 8692 HATTFJELLDAL", "fuel_types": "95 Blyfri, Diesel, Avgiftsfri diesel", "has_liquid_fuel": true, "source_url": "https://www.yx.no/stasjon/yx-hattfjelldal-automat-10400582", "dataset_source_url": "https://www.yx.no/stasjon", "api_source_url": "https://yx-webflow-sync.harald-d95.workers.dev/stations", "api_discovery_url": "https://cdn.cure.no/yx/init.js", "retrieved": "2026-09-24", "selected": true}, "geometry": {"type": "Point", "coordinates": [13.9883, 65.5957]}}, {"type": "Feature", "properties": {"id": "57006", "name": "CIRCLE K AUTOMAT  EVJE", "chain": "Circle K", "lat": 58.57923, "lon": 7.788771, "address": "Bjoråvegen 2, 4735, Evje", "municipality": "EVJE OG HORNNES", "county": "AGDER", "siteType": "ST", "status": "Active", "fuel_types": ["AdBlue", "miles 95", "miles Diesel"], "has_liquid_fuel": true, "source_url": "https://www.circlek.no/station/57006", "dataset_source_url": "https://www.circlek.no/station-search", "retrieved": "2026-09-24", "selected": true}, "geometry": {"type": "Point", "coordinates": [7.788771, 58.57923]}}, {"type": "Feature", "properties": {"id": "54326", "name": "CIRCLE K KARASJOK", "chain": "Circle K", "lat": 69.47162, "lon": 25.510025, "address": "Suomageaidnu 1, 9730, Karasjok", "municipality": "KARASJOHKA KARASJOK", "county": "Finnmark", "siteType": "ST", "status": "Active", "fuel_types": ["EV Charger", "AdBlue", "miles 95", "miles Diesel", "milesPLUS Diesel", "Anleggsdiesel"], "has_liquid_fuel": true, "source_url": "https://www.circlek.no/station/54326", "dataset_source_url": "https://www.circlek.no/station-search", "retrieved": "2026-09-24", "selected": true}, "geometry": {"type": "Point", "coordinates": [25.510025, 69.47162]}}, {"type": "Feature", "properties": {"id": "51327", "name": "CIRCLE K AUTOMAT NORDBERG", "chain": "Circle K", "lat": 61.912064, "lon": 8.112649, "address": "Skjåkvegen 2108, 2693, Nordberg", "municipality": "SKJÅK", "county": "INNLANDET", "siteType": "ST", "status": "Active", "fuel_types": ["AdBlue", "miles 95", "miles Diesel", "Anleggsdiesel"], "has_liquid_fuel": true, "source_url": "https://www.circlek.no/station/51327", "dataset_source_url": "https://www.circlek.no/station-search", "retrieved": "2026-09-24", "selected": true}, "geometry": {"type": "Point", "coordinates": [8.112649, 61.912064]}}, {"type": "Feature", "properties": {"id": "56066", "name": "CIRCLE K TRUCK KONGSVINGER", "chain": "Circle K", "lat": 60.193832, "lon": 12.032988, "address": "Masterudvegen 23, 2211, Kongsvinger", "municipality": "KONGSVINGER", "county": "INNLANDET", "siteType": "ST", "status": "Active", "fuel_types": ["AdBlue", "miles Diesel", "Anleggsdiesel"], "has_liquid_fuel": true, "source_url": "https://www.circlek.no/station/56066", "dataset_source_url": "https://www.circlek.no/station-search", "retrieved": "2026-09-24", "selected": true}, "geometry": {"type": "Point", "coordinates": [12.032988, 60.193832]}}, {"type": "Feature", "properties": {"id": "52574", "name": "CIRCLE K RØROS", "chain": "Circle K", "lat": 62.56651, "lon": 11.372521, "address": "Havsjøveien 7, 7374, Røros", "municipality": "RØROS", "county": "TRØNDELAG", "siteType": "ST", "status": "Active", "fuel_types": ["AdBlue", "miles 95", "miles Diesel", "milesPLUS Diesel", "Anleggsdiesel"], "has_liquid_fuel": true, "source_url": "https://www.circlek.no/station/52574", "dataset_source_url": "https://www.circlek.no/station-search", "retrieved": "2026-09-24", "selected": true}, "geometry": {"type": "Point", "coordinates": [11.372521, 62.56651]}}, {"type": "Feature", "properties": {"id": "54296", "name": "CIRCLE K E6 NARVIK", "chain": "Circle K", "lat": 68.41036, "lon": 17.428078, "address": "Fagernesveien 142, 8514, Narvik", "municipality": "NARVIK", "county": "NORDLAND", "siteType": "ST", "status": "Active", "fuel_types": ["EV Charger", "AdBlue", "miles 95", "miles Diesel", "milesPLUS Diesel", "Anleggsdiesel"], "has_liquid_fuel": true, "source_url": "https://www.circlek.no/station/54296", "dataset_source_url": "https://www.circlek.no/station-search", "retrieved": "2026-09-24", "selected": true}, "geometry": {"type": "Point", "coordinates": [17.428078, 68.41036]}}, {"type": "Feature", "properties": {"id": "yx-69316c98cb6978a89c073b49", "name": "YX Vardø (automat)", "lat": 70.3748, "lon": 31.0988, "chain": "YX", "address": "Skagveien 2, 9950 VARDØ", "fuel_types": "95 Blyfri, Diesel, Avgiftsfri diesel", "has_liquid_fuel": true, "source_url": "https://www.yx.no/stasjon/yx-vard-automat-10400894", "dataset_source_url": "https://www.yx.no/stasjon", "api_source_url": "https://yx-webflow-sync.harald-d95.workers.dev/stations", "api_discovery_url": "https://cdn.cure.no/yx/init.js", "retrieved": "2026-09-24", "selected": true}, "geometry": {"type": "Point", "coordinates": [31.0988, 70.3748]}}, {"type": "Feature", "properties": {"id": "53922", "name": "CIRCLE K REINE", "chain": "Circle K", "lat": 67.93468, "lon": 13.08882, "address": "Reinevn 84, 8390, Reine", "municipality": "MOSKENES", "county": "NORDLAND", "siteType": "ST", "status": "Active", "fuel_types": ["miles 95", "miles Diesel", "Anleggsdiesel"], "has_liquid_fuel": true, "source_url": "https://www.circlek.no/station/53922", "dataset_source_url": "https://www.circlek.no/station-search", "retrieved": "2026-09-24", "selected": true}, "geometry": {"type": "Point", "coordinates": [13.08882, 67.93468]}}, {"type": "Feature", "properties": {"id": "joker-trana", "name": "Joker Træna", "chain": "Joker", "lat": 66.50116903026058, "lon": 12.101401289033662, "address": "Janesvågen 6, 8770 TRÆNA", "fuel_types": ["bensin", "diesel"], "source_url": "https://joker.no/finn-butikk/joker-trana", "coordinate_source": "Store location in first-party JSON-LD; not independently surveyed fuel-pump position", "retrieved": "2026-09-24", "selected": true}, "geometry": {"type": "Point", "coordinates": [12.101401289033662, 66.50116903026058]}}, {"type": "Feature", "properties": {"id": "53975", "name": "CIRCLE K SANDSLI", "chain": "Circle K", "lat": 60.29222, "lon": 5.28647, "address": "Sandslivegen 11, 5254, Sandsli", "municipality": "BERGEN", "county": "VESTLAND", "siteType": "ST", "status": "Active", "fuel_types": ["miles 95", "miles Diesel", "milesPLUS Diesel"], "has_liquid_fuel": true, "source_url": "https://www.circlek.no/station/53975", "dataset_source_url": "https://www.circlek.no/station-search", "retrieved": "2026-09-24", "selected": true}, "geometry": {"type": "Point", "coordinates": [5.28647, 60.29222]}}, {"type": "Feature", "properties": {"id": "54194", "name": "CIRCLE K AUTOMAT KJØLLEFJORD", "chain": "Circle K", "lat": 70.94472, "lon": 27.315178, "address": "Strandvegen 1, 9790, Kjøllefjord", "municipality": "LEBESBY", "county": "Finnmark", "siteType": "ST", "status": "Active", "fuel_types": ["miles 95", "miles Diesel"], "has_liquid_fuel": true, "source_url": "https://www.circlek.no/station/54194", "dataset_source_url": "https://www.circlek.no/station-search", "retrieved": "2026-09-24", "selected": true}, "geometry": {"type": "Point", "coordinates": [27.315178, 70.94472]}}, {"type": "Feature", "properties": {"id": "yx-69316c98cb6978a89c073b46", "name": "YX Burfjord", "lat": 69.9406, "lon": 22.0508, "chain": "YX", "address": "Strandveien 2, 9161 BURFJORD", "fuel_types": "95 Blyfri, Diesel, Avgiftsfri diesel, Ad Blue", "has_liquid_fuel": true, "source_url": "https://www.yx.no/stasjon/yx-burfjord-10400892", "dataset_source_url": "https://www.yx.no/stasjon", "api_source_url": "https://yx-webflow-sync.harald-d95.workers.dev/stations", "api_discovery_url": "https://cdn.cure.no/yx/init.js", "retrieved": "2026-09-24", "selected": true}, "geometry": {"type": "Point", "coordinates": [22.0508, 69.9406]}}, {"type": "Feature", "properties": {"id": "52396", "name": "CIRCLE K ALVDAL", "chain": "Circle K", "lat": 62.118341, "lon": 10.613766, "address": "Nord-østerdalsveien 5196, 2560, Alvdal", "municipality": "ALVDAL", "county": "INNLANDET", "siteType": "ST", "status": "Active", "fuel_types": ["EV Charger", "AdBlue", "miles 95", "miles Diesel", "milesPLUS Diesel", "Anleggsdiesel"], "has_liquid_fuel": true, "source_url": "https://www.circlek.no/station/52396", "dataset_source_url": "https://www.circlek.no/station-search", "retrieved": "2026-09-24", "selected": true}, "geometry": {"type": "Point", "coordinates": [10.613766, 62.118341]}}, {"type": "Feature", "properties": {"id": "54348", "name": "CIRCLE K STOKMARKNES", "chain": "Circle K", "lat": 68.571094, "lon": 14.946529, "address": "Industriveien 2, 8450, Stokmarknes", "municipality": "HADSEL", "county": "NORDLAND", "siteType": "ST", "status": "Active", "fuel_types": ["AdBlue", "miles 95", "miles Diesel", "Anleggsdiesel"], "has_liquid_fuel": true, "source_url": "https://www.circlek.no/station/54348", "dataset_source_url": "https://www.circlek.no/station-search", "retrieved": "2026-09-24", "selected": true}, "geometry": {"type": "Point", "coordinates": [14.946529, 68.571094]}}, {"type": "Feature", "properties": {"id": "55525", "name": "CIRCLE K TRUCK FAUSKE", "chain": "Circle K", "lat": 67.27219, "lon": 15.398072, "address": "Follaveien 86, 8208, Fauske", "municipality": "FAUSKE", "county": "NORDLAND", "siteType": "ST", "status": "Active", "fuel_types": ["AdBlue", "miles Diesel", "Anleggsdiesel"], "has_liquid_fuel": true, "source_url": "https://www.circlek.no/station/55525", "dataset_source_url": "https://www.circlek.no/station-search", "retrieved": "2026-09-24", "selected": true}, "geometry": {"type": "Point", "coordinates": [15.398072, 67.27219]}}, {"type": "Feature", "properties": {"id": "unox-10500211", "name": "Uno-X 7-Eleven Nes i Ådal", "chain": "Uno-X", "lat": 60.56209, "lon": 9.99718, "address": "Ådalsveien 1161, 3524, NES I ÅDAL", "source_url": "https://unox.no/finn-uno-x/lokasjon/10500211", "selected": true}, "geometry": {"type": "Point", "coordinates": [9.99718, 60.56209]}}, {"type": "Feature", "properties": {"id": "yx-69316c8e29c0d74067ed3e92", "name": "YX Storforshei", "lat": 66.4036, "lon": 14.5336, "chain": "YX", "address": "Malmgata 41, 8630 STORFORSHEI", "fuel_types": "95 Blyfri, Diesel, Avgiftsfri diesel", "has_liquid_fuel": true, "source_url": "https://www.yx.no/stasjon/yx-storforshei-10400254", "dataset_source_url": "https://www.yx.no/stasjon", "api_source_url": "https://yx-webflow-sync.harald-d95.workers.dev/stations", "api_discovery_url": "https://cdn.cure.no/yx/init.js", "retrieved": "2026-09-24", "selected": true}, "geometry": {"type": "Point", "coordinates": [14.5336, 66.4036]}}, {"type": "Feature", "properties": {"id": "56207", "name": "CIRCLE K TRUCK RJUKAN", "chain": "Circle K", "lat": 59.879967, "lon": 8.661676, "address": "Svaddevegen 139, 3660, Rjukan", "municipality": "TINN", "county": "Telemark", "siteType": "ST", "status": "Active", "fuel_types": ["AdBlue", "miles Diesel", "Anleggsdiesel"], "has_liquid_fuel": true, "source_url": "https://www.circlek.no/station/56207", "dataset_source_url": "https://www.circlek.no/station-search", "retrieved": "2026-09-24", "selected": true}, "geometry": {"type": "Point", "coordinates": [8.661676, 59.879967]}}, {"type": "Feature", "properties": {"id": "bunker-5", "chain": "Bunker Oil", "name": "Bunker Oil Brekke", "lat": 61.011964, "lon": 5.4619, "address": ", , ", "description": "Autodiesel , Farget diesel, Hurtigleverende dieselpumpe", "source_url": "https://bunkeroil.no/en/map-petrol-stations", "map_url": "https://www.google.com/maps/d/embed?mid=1lE7MJKdWIR5W2Jb10eNRFsKM536AdAji&ehbc=2E312F", "retrieved": "2026-09-24", "selected": true}, "geometry": {"type": "Point", "coordinates": [5.4619, 61.011964]}}, {"type": "Feature", "properties": {"id": "52484", "name": "CIRCLE K AUTOMAT NORDLI", "chain": "Circle K", "lat": 64.463448, "lon": 13.591869, "address": "Heggvollveien 1, 7882, Nordli", "municipality": "LIERNE", "county": "TRØNDELAG", "siteType": "ST", "status": "Active", "fuel_types": ["miles 95", "miles Diesel", "Anleggsdiesel"], "has_liquid_fuel": true, "source_url": "https://www.circlek.no/station/52484", "dataset_source_url": "https://www.circlek.no/station-search", "retrieved": "2026-09-24", "selected": true}, "geometry": {"type": "Point", "coordinates": [13.591869, 64.463448]}}, {"type": "Feature", "properties": {"id": "52038", "name": "CIRCLE K AUTOMAT TONSTAD", "chain": "Circle K", "lat": 58.665962, "lon": 6.716552, "address": "Tonstadvegen 17, 4440, Tonstad", "municipality": "SIRDAL", "county": "AGDER", "siteType": "ST", "status": "Active", "fuel_types": ["miles 95", "miles Diesel", "Anleggsdiesel"], "has_liquid_fuel": true, "source_url": "https://www.circlek.no/station/52038", "dataset_source_url": "https://www.circlek.no/station-search", "retrieved": "2026-09-24", "selected": true}, "geometry": {"type": "Point", "coordinates": [6.716552, 58.665962]}}, {"type": "Feature", "properties": {"id": "54066", "name": "CIRCLE K AUTOMAT HAVØYSUND", "chain": "Circle K", "lat": 70.99502, "lon": 24.673016, "address": "Strandgata 139, 9690, Havøysund", "municipality": "MÅSØY", "county": "Finnmark", "siteType": "ST", "status": "Active", "fuel_types": ["miles 95", "miles Diesel", "Anleggsdiesel"], "has_liquid_fuel": true, "source_url": "https://www.circlek.no/station/54066", "dataset_source_url": "https://www.circlek.no/station-search", "retrieved": "2026-09-24", "selected": true}, "geometry": {"type": "Point", "coordinates": [24.673016, 70.99502]}}, {"type": "Feature", "properties": {"id": "yx-69316c98cb6978a89c073a80", "name": "YX Røldal (automat)", "lat": 59.8384, "lon": 6.86419, "chain": "YX", "address": "Liamyrene, 5760 RØLDAL", "fuel_types": "Diesel", "has_liquid_fuel": true, "source_url": "https://www.yx.no/stasjon/yx-r-ldal-automat-10400733", "dataset_source_url": "https://www.yx.no/stasjon", "api_source_url": "https://yx-webflow-sync.harald-d95.workers.dev/stations", "api_discovery_url": "https://cdn.cure.no/yx/init.js", "retrieved": "2026-09-24", "selected": true}, "geometry": {"type": "Point", "coordinates": [6.86419, 59.8384]}}, {"type": "Feature", "properties": {"id": "51248", "name": "CIRCLE K AUTOMAT ENGERDAL", "chain": "Circle K", "lat": 61.758772, "lon": 11.9602, "address": "Engerdalsveien 1807, 2440, Engerdal", "municipality": "ENGERDAL", "county": "INNLANDET", "siteType": "ST", "status": "Active", "fuel_types": ["miles 95", "miles Diesel", "Anleggsdiesel"], "has_liquid_fuel": true, "source_url": "https://www.circlek.no/station/51248", "dataset_source_url": "https://www.circlek.no/station-search", "retrieved": "2026-09-24", "selected": true}, "geometry": {"type": "Point", "coordinates": [11.9602, 61.758772]}}, {"type": "Feature", "properties": {"id": "yx-69316c939657276bdbcc0dc2", "name": "YX Smøla (automat)", "lat": 63.4589, "lon": 8.05952, "chain": "YX", "address": "Østsideveien 2333, 6570 SMØLA", "fuel_types": "95 Blyfri, 98 Blyfri, Diesel, Avgiftsfri diesel", "has_liquid_fuel": true, "source_url": "https://www.yx.no/stasjon/yx-sm-la-automat-10400614", "dataset_source_url": "https://www.yx.no/stasjon", "api_source_url": "https://yx-webflow-sync.harald-d95.workers.dev/stations", "api_discovery_url": "https://cdn.cure.no/yx/init.js", "retrieved": "2026-09-24", "selected": true}, "geometry": {"type": "Point", "coordinates": [8.05952, 63.4589]}}, {"type": "Feature", "properties": {"id": "yx-69316c939657276bdbcc0d77", "name": "YX Fyresdal", "lat": 59.2033, "lon": 8.08448, "chain": "YX", "address": "Molandsmoen 4, 3870 FYRESDAL", "fuel_types": "95 Blyfri, 98 Blyfri, Diesel, Avgiftsfri diesel", "has_liquid_fuel": true, "source_url": "https://www.yx.no/stasjon/yx-fyresdal-10400583", "dataset_source_url": "https://www.yx.no/stasjon", "api_source_url": "https://yx-webflow-sync.harald-d95.workers.dev/stations", "api_discovery_url": "https://cdn.cure.no/yx/init.js", "retrieved": "2026-09-24", "selected": true}, "geometry": {"type": "Point", "coordinates": [8.08448, 59.2033]}}, {"type": "Feature", "properties": {"id": "yx-693ba182c63243f63f185fcc", "name": "YX Sunndalsporten (automat)", "lat": 62.5492, "lon": 9.1154, "chain": "YX", "address": "Fjellgardsvegen 2, 6613 GJØRA", "fuel_types": "95 Blyfri, Diesel, Avgiftsfri diesel", "has_liquid_fuel": true, "source_url": "https://www.yx.no/stasjon/yx-sunndalsporten-automat-10400605", "dataset_source_url": "https://www.yx.no/stasjon", "api_source_url": "https://yx-webflow-sync.harald-d95.workers.dev/stations", "api_discovery_url": "https://cdn.cure.no/yx/init.js", "retrieved": "2026-09-24", "selected": true}, "geometry": {"type": "Point", "coordinates": [9.1154, 62.5492]}}, {"type": "Feature", "properties": {"id": "51709", "name": "CIRCLE K TORSTRAND", "chain": "Circle K", "lat": 59.046364, "lon": 10.050885, "address": "Storgata 150, 3262, Larvik", "municipality": "LARVIK", "county": "Vestfold", "siteType": "ST", "status": "Active", "fuel_types": ["miles 95", "miles Diesel", "milesPLUS Diesel"], "has_liquid_fuel": true, "source_url": "https://www.circlek.no/station/51709", "dataset_source_url": "https://www.circlek.no/station-search", "retrieved": "2026-09-24", "selected": true}, "geometry": {"type": "Point", "coordinates": [10.050885, 59.046364]}}, {"type": "Feature", "properties": {"id": "yx-69316c8e29c0d74067ed3eb6", "name": "YX Steinsdalen", "lat": 64.3025, "lon": 10.5129, "chain": "YX", "address": "Osenveien 44, 7740 STEINSDALEN", "fuel_types": "95 Blyfri, Diesel, Avgiftsfri diesel", "has_liquid_fuel": true, "source_url": "https://www.yx.no/stasjon/yx-steinsdalen-10400403", "dataset_source_url": "https://www.yx.no/stasjon", "api_source_url": "https://yx-webflow-sync.harald-d95.workers.dev/stations", "api_discovery_url": "https://cdn.cure.no/yx/init.js", "retrieved": "2026-09-24", "selected": true}, "geometry": {"type": "Point", "coordinates": [10.5129, 64.3025]}}, {"type": "Feature", "properties": {"id": "57026", "name": "CIRCLE K AUTOMAT RENA", "chain": "Circle K", "lat": 61.13466, "lon": 11.373644, "address": "Brugata 19, 2450, Rena", "municipality": "ÅMOT", "county": "INNLANDET", "siteType": "ST", "status": "Active", "fuel_types": ["miles 95", "miles Diesel"], "has_liquid_fuel": true, "source_url": "https://www.circlek.no/station/57026", "dataset_source_url": "https://www.circlek.no/station-search", "retrieved": "2026-09-24", "selected": true}, "geometry": {"type": "Point", "coordinates": [11.373644, 61.13466]}}, {"type": "Feature", "properties": {"id": "yx-69316c939657276bdbcc0df8", "name": "YX Hemnes (automat)", "lat": 66.2241, "lon": 13.6033, "chain": "YX", "address": "Sjøgata 2, 8640 HEMNESBERGET", "fuel_types": "95 Blyfri, Diesel", "has_liquid_fuel": true, "source_url": "https://www.yx.no/stasjon/yx-hemnes-automat-10400636", "dataset_source_url": "https://www.yx.no/stasjon", "api_source_url": "https://yx-webflow-sync.harald-d95.workers.dev/stations", "api_discovery_url": "https://cdn.cure.no/yx/init.js", "retrieved": "2026-09-24", "selected": true}, "geometry": {"type": "Point", "coordinates": [13.6033, 66.2241]}}, {"type": "Feature", "properties": {"id": "bunker-75", "chain": "Bunker Oil", "name": "Bunker Oil Sandshamn", "lat": 62.251588507144, "lon": 5.48738586871286, "address": "Sandshamn / Rosenlund Havn, 6089, Sandshamn", "description": "Blyfri 98, Autodiesel , Farget diesel, Marina", "source_url": "https://bunkeroil.no/en/map-petrol-stations", "map_url": "https://www.google.com/maps/d/embed?mid=1lE7MJKdWIR5W2Jb10eNRFsKM536AdAji&ehbc=2E312F", "retrieved": "2026-09-24", "selected": true}, "geometry": {"type": "Point", "coordinates": [5.48738586871286, 62.251588507144]}}, {"type": "Feature", "properties": {"id": "54569", "name": "CIRCLE K TRUCK ORKDAL", "chain": "Circle K", "lat": 63.307334, "lon": 9.832764, "address": "Grønørveien 21, 7300, Orkanger", "municipality": "ORKLAND ", "county": "TRØNDELAG", "siteType": "ST", "status": "Active", "fuel_types": ["AdBlue", "miles Diesel", "Anleggsdiesel"], "has_liquid_fuel": true, "source_url": "https://www.circlek.no/station/54569", "dataset_source_url": "https://www.circlek.no/station-search", "retrieved": "2026-09-24", "selected": true}, "geometry": {"type": "Point", "coordinates": [9.832764, 63.307334]}}, {"type": "Feature", "properties": {"id": "yx-69316c939657276bdbcc0d8c", "name": "YX Aremark", "lat": 59.2205, "lon": 11.6965, "chain": "YX", "address": "Aremarkveien 2260, 1798 AREMARK", "fuel_types": "95 Blyfri, Diesel, Avgiftsfri diesel", "has_liquid_fuel": true, "source_url": "https://www.yx.no/stasjon/yx-aremark-10400591", "dataset_source_url": "https://www.yx.no/stasjon", "api_source_url": "https://yx-webflow-sync.harald-d95.workers.dev/stations", "api_discovery_url": "https://cdn.cure.no/yx/init.js", "retrieved": "2026-09-24", "selected": true}, "geometry": {"type": "Point", "coordinates": [11.6965, 59.2205]}}, {"type": "Feature", "properties": {"id": "yx-69316c98cb6978a89c073a98", "name": "YX Hovden (automat)", "lat": 59.5593, "lon": 7.35641, "chain": "YX", "address": "Setesdalsvegen 4263, 4755 HOVDEN I SETESDAL", "fuel_types": "95 Blyfri, Diesel", "has_liquid_fuel": true, "source_url": "https://www.yx.no/stasjon/yx-hovden-automat-10400805", "dataset_source_url": "https://www.yx.no/stasjon", "api_source_url": "https://yx-webflow-sync.harald-d95.workers.dev/stations", "api_discovery_url": "https://cdn.cure.no/yx/init.js", "retrieved": "2026-09-24", "selected": true}, "geometry": {"type": "Point", "coordinates": [7.35641, 59.5593]}}, {"type": "Feature", "properties": {"id": "yx-69316c98cb6978a89c073b97", "name": "YX Dovre (butikk)", "lat": 62.0123, "lon": 9.20796, "chain": "YX", "address": "Gudbrandsdalsvegen 1720, 2662 DOVRE", "fuel_types": "95 Blyfri, Diesel, Avgiftsfri diesel, Ad Blue", "has_liquid_fuel": true, "source_url": "https://www.yx.no/stasjon/yx-dovre-butikk-10400928", "dataset_source_url": "https://www.yx.no/stasjon", "api_source_url": "https://yx-webflow-sync.harald-d95.workers.dev/stations", "api_discovery_url": "https://cdn.cure.no/yx/init.js", "retrieved": "2026-09-24", "selected": true}, "geometry": {"type": "Point", "coordinates": [9.20796, 62.0123]}}, {"type": "Feature", "properties": {"id": "51302", "name": "CIRCLE K AUTOMAT VINSTRA", "chain": "Circle K", "lat": 61.594149, "lon": 9.752945, "address": "Øvregata 23, 2640, Vinstra", "municipality": "NORD-FRON", "county": "INNLANDET", "siteType": "ST", "status": "Active", "fuel_types": ["miles 95", "miles Diesel"], "has_liquid_fuel": true, "source_url": "https://www.circlek.no/station/51302", "dataset_source_url": "https://www.circlek.no/station-search", "retrieved": "2026-09-24", "selected": true}, "geometry": {"type": "Point", "coordinates": [9.752945, 61.594149]}}, {"type": "Feature", "properties": {"id": "yx-69316c8e29c0d74067ed3f01", "name": "YX Vik", "lat": 61.0887, "lon": 6.58508, "chain": "YX", "address": "Sentrumsgata 2, 6893 VIK I SOGN", "fuel_types": "95 Blyfri, Diesel, Avgiftsfri diesel", "has_liquid_fuel": true, "source_url": "https://www.yx.no/stasjon/yx-vik-10400508", "dataset_source_url": "https://www.yx.no/stasjon", "api_source_url": "https://yx-webflow-sync.harald-d95.workers.dev/stations", "api_discovery_url": "https://cdn.cure.no/yx/init.js", "retrieved": "2026-09-24", "selected": true}, "geometry": {"type": "Point", "coordinates": [6.58508, 61.0887]}}, {"type": "Feature", "properties": {"id": "51910", "name": "CIRCLE K LIVOLD", "chain": "Circle K", "lat": 58.087704, "lon": 7.291741, "address": "Mandalsveien 1607, 4520, Lindesnes", "municipality": "LINDESNES", "county": "AGDER", "siteType": "ST", "status": "Active", "fuel_types": ["EV Charger", "AdBlue", "miles 95", "miles Diesel", "milesPLUS Diesel", "Anleggsdiesel"], "has_liquid_fuel": true, "source_url": "https://www.circlek.no/station/51910", "dataset_source_url": "https://www.circlek.no/station-search", "retrieved": "2026-09-24", "selected": true}, "geometry": {"type": "Point", "coordinates": [7.291741, 58.087704]}}, {"type": "Feature", "properties": {"id": "yx-69316c98cb6978a89c073b1f", "name": "YX Sistranda", "lat": 63.7167, "lon": 8.8397, "chain": "YX", "address": "Nordfrøyveien 234, 7260 SISTRANDA", "fuel_types": "95 Blyfri, Diesel, Avgiftsfri diesel", "has_liquid_fuel": true, "source_url": "https://www.yx.no/stasjon/yx-sistranda-10400873", "dataset_source_url": "https://www.yx.no/stasjon", "api_source_url": "https://yx-webflow-sync.harald-d95.workers.dev/stations", "api_discovery_url": "https://cdn.cure.no/yx/init.js", "retrieved": "2026-09-24", "selected": true}, "geometry": {"type": "Point", "coordinates": [8.8397, 63.7167]}}, {"type": "Feature", "properties": {"id": "bunker-25", "chain": "Bunker Oil", "name": "Bunker Oil Grytøyra", "lat": 61.28928, "lon": 5.024899, "address": ", 6967, Hellevik i Fjaler ", "description": "Blyfri 95, Autodiesel, Farget Diesel, Marina", "source_url": "https://bunkeroil.no/en/map-petrol-stations", "map_url": "https://www.google.com/maps/d/embed?mid=1lE7MJKdWIR5W2Jb10eNRFsKM536AdAji&ehbc=2E312F", "retrieved": "2026-09-24", "selected": true}, "geometry": {"type": "Point", "coordinates": [5.024899, 61.28928]}}, {"type": "Feature", "properties": {"id": "bunker-32", "chain": "Bunker Oil", "name": "Bunker Oil Ifjord", "lat": 70.461357, "lon": 27.107402, "address": ", , ", "description": "Blyfri 95, Autodiesel, Farget Diesel", "source_url": "https://bunkeroil.no/en/map-petrol-stations", "map_url": "https://www.google.com/maps/d/embed?mid=1lE7MJKdWIR5W2Jb10eNRFsKM536AdAji&ehbc=2E312F", "retrieved": "2026-09-24", "selected": true}, "geometry": {"type": "Point", "coordinates": [27.107402, 70.461357]}}, {"type": "Feature", "properties": {"id": "yx-69316c8e29c0d74067ed3efb", "name": "YX Øvre Årdal", "lat": 61.3088, "lon": 7.81387, "chain": "YX", "address": "Årdalsveien 1, 6884 ØVRE ÅRDAL", "fuel_types": "95 Blyfri, Diesel, Avgiftsfri diesel", "has_liquid_fuel": true, "source_url": "https://www.yx.no/stasjon/yx-vre-ardal-10400506", "dataset_source_url": "https://www.yx.no/stasjon", "api_source_url": "https://yx-webflow-sync.harald-d95.workers.dev/stations", "api_discovery_url": "https://cdn.cure.no/yx/init.js", "retrieved": "2026-09-24", "selected": true}, "geometry": {"type": "Point", "coordinates": [7.81387, 61.3088]}}, {"type": "Feature", "properties": {"id": "yx-69316c8e29c0d74067ed3f43", "name": "YX Engavågen (automat)", "lat": 66.7799, "lon": 13.5346, "chain": "YX", "address": "Enga 1, 8170 ENGAVÅGEN", "fuel_types": "95 Blyfri, Diesel", "has_liquid_fuel": true, "source_url": "https://www.yx.no/stasjon/yx-engavagen-automat-10400530", "dataset_source_url": "https://www.yx.no/stasjon", "api_source_url": "https://yx-webflow-sync.harald-d95.workers.dev/stations", "api_discovery_url": "https://cdn.cure.no/yx/init.js", "retrieved": "2026-09-24", "selected": true}, "geometry": {"type": "Point", "coordinates": [13.5346, 66.7799]}}, {"type": "Feature", "properties": {"id": "yx-69316c939657276bdbcc0d20", "name": "YX Meråker", "lat": 63.4181, "lon": 11.7389, "chain": "YX", "address": "Mellomriksvegen 4855, 7530 MERÅKER", "fuel_types": "95 Blyfri, 98 Blyfri, Diesel, Avgiftsfri diesel, Ad Blue", "has_liquid_fuel": true, "source_url": "https://www.yx.no/stasjon/yx-meraker-10400552", "dataset_source_url": "https://www.yx.no/stasjon", "api_source_url": "https://yx-webflow-sync.harald-d95.workers.dev/stations", "api_discovery_url": "https://cdn.cure.no/yx/init.js", "retrieved": "2026-09-24", "selected": true}, "geometry": {"type": "Point", "coordinates": [11.7389, 63.4181]}}, {"type": "Feature", "properties": {"id": "yx-69316c939657276bdbcc0dda", "name": "YX Foldereid (automat)", "lat": 64.9624, "lon": 12.1778, "chain": "YX", "address": "Foldereidvegen 4, 7985 FOLDEREID", "fuel_types": "95 Blyfri, Diesel, Avgiftsfri diesel", "has_liquid_fuel": true, "source_url": "https://www.yx.no/stasjon/yx-foldereid-automat-10400623", "dataset_source_url": "https://www.yx.no/stasjon", "api_source_url": "https://yx-webflow-sync.harald-d95.workers.dev/stations", "api_discovery_url": "https://cdn.cure.no/yx/init.js", "retrieved": "2026-09-24", "selected": true}, "geometry": {"type": "Point", "coordinates": [12.1778, 64.9624]}}, {"type": "Feature", "properties": {"id": "yx-69316c939657276bdbcc0daa", "name": "YX Stonglandseidet (automat)", "lat": 69.084, "lon": 17.1709, "chain": "YX", "address": "Skrolsvikveien 7, 9392 STONGLANDSEIDET", "fuel_types": "95 Blyfri, Diesel, Avgiftsfri diesel", "has_liquid_fuel": true, "source_url": "https://www.yx.no/stasjon/yx-stonglandseidet-automat-10400604", "dataset_source_url": "https://www.yx.no/stasjon", "api_source_url": "https://yx-webflow-sync.harald-d95.workers.dev/stations", "api_discovery_url": "https://cdn.cure.no/yx/init.js", "retrieved": "2026-09-24", "selected": true}, "geometry": {"type": "Point", "coordinates": [17.1709, 69.084]}}, {"type": "Feature", "properties": {"id": "52596", "name": "CIRCLE K STEINKJER", "chain": "Circle K", "lat": 64.011444, "lon": 11.49851, "address": "Kongens Gate 45, 7713, Steinkjer", "municipality": "STEINKJER", "county": "TRØNDELAG", "siteType": "ST", "status": "Active", "fuel_types": ["EV Charger", "miles 95", "miles Diesel", "milesPLUS Diesel"], "has_liquid_fuel": true, "source_url": "https://www.circlek.no/station/52596", "dataset_source_url": "https://www.circlek.no/station-search", "retrieved": "2026-09-24", "selected": true}, "geometry": {"type": "Point", "coordinates": [11.49851, 64.011444]}}, {"type": "Feature", "properties": {"id": "51501", "name": "CIRCLE K GULSVIK", "chain": "Circle K", "lat": 60.381149, "lon": 9.610877, "address": "Bjørkvikmoen 5, 3539, Flå", "municipality": "FLÅ", "county": "Buskerud", "siteType": "ST", "status": "Active", "fuel_types": ["EV Charger", "AdBlue", "miles 95", "miles Diesel", "milesPLUS Diesel", "Anleggsdiesel"], "has_liquid_fuel": true, "source_url": "https://www.circlek.no/station/51501", "dataset_source_url": "https://www.circlek.no/station-search", "retrieved": "2026-09-24", "selected": true}, "geometry": {"type": "Point", "coordinates": [9.610877, 60.381149]}}, {"type": "Feature", "properties": {"id": "yx-69316c98cb6978a89c073b3d", "name": "YX Nygårdsjøen", "lat": 67.1216, "lon": 14.3226, "chain": "YX", "address": "Nygårdveien 159, 8120 NYGÅRDSJØEN", "fuel_types": "95 Blyfri, Diesel, Avgiftsfri diesel, Ad Blue", "has_liquid_fuel": true, "source_url": "https://www.yx.no/stasjon/yx-nygardsj-en-10400889", "dataset_source_url": "https://www.yx.no/stasjon", "api_source_url": "https://yx-webflow-sync.harald-d95.workers.dev/stations", "api_discovery_url": "https://cdn.cure.no/yx/init.js", "retrieved": "2026-09-24", "selected": true}, "geometry": {"type": "Point", "coordinates": [14.3226, 67.1216]}}, {"type": "Feature", "properties": {"id": "52857", "name": "CIRCLE K SVOLVÆR", "chain": "Circle K", "lat": 68.238844, "lon": 14.567827, "address": "Repslagergata 20, 8300, Svolvær", "municipality": "VÅGAN", "county": "NORDLAND", "siteType": "ST", "status": "Active", "fuel_types": ["EV Charger", "AdBlue", "miles 95", "miles Diesel", "milesPLUS Diesel", "Anleggsdiesel"], "has_liquid_fuel": true, "source_url": "https://www.circlek.no/station/52857", "dataset_source_url": "https://www.circlek.no/station-search", "retrieved": "2026-09-24", "selected": true}, "geometry": {"type": "Point", "coordinates": [14.567827, 68.238844]}}, {"type": "Feature", "properties": {"id": "yx-69316c8e29c0d74067ed3ece", "name": "YX Bjorli", "lat": 62.2585, "lon": 8.20574, "chain": "YX", "address": "Bøvervegen 5, 2669 BJORLI", "fuel_types": "95 Blyfri, Diesel, Avgiftsfri diesel", "has_liquid_fuel": true, "source_url": "https://www.yx.no/stasjon/yx-bjorli-10400429", "dataset_source_url": "https://www.yx.no/stasjon", "api_source_url": "https://yx-webflow-sync.harald-d95.workers.dev/stations", "api_discovery_url": "https://cdn.cure.no/yx/init.js", "retrieved": "2026-09-24", "selected": true}, "geometry": {"type": "Point", "coordinates": [8.20574, 62.2585]}}, {"type": "Feature", "properties": {"id": "52692", "name": "CIRCLE K AUTOMAT ÅLEN", "chain": "Circle K", "lat": 62.84054, "lon": 11.304788, "address": "Eggavegen 3, 7380, Ålen", "municipality": "HOLTÅLEN", "county": "TRØNDELAG", "siteType": "ST", "status": "Active", "fuel_types": ["miles 95", "miles Diesel", "Anleggsdiesel"], "has_liquid_fuel": true, "source_url": "https://www.circlek.no/station/52692", "dataset_source_url": "https://www.circlek.no/station-search", "retrieved": "2026-09-24", "selected": true}, "geometry": {"type": "Point", "coordinates": [11.304788, 62.84054]}}, {"type": "Feature", "properties": {"id": "yx-6a25a3dcd12af20482de3a29", "name": "YX Saltdal", "lat": 66.8133, "lon": 15.4018, "chain": "YX", "address": "Saltfjellveien 2033, 8255 RØKLAND", "fuel_types": "95 Blyfri, Diesel, Avgiftsfri diesel, Ad Blue", "has_liquid_fuel": true, "source_url": "https://www.yx.no/stasjon/yx-saltdal-10400895", "dataset_source_url": "https://www.yx.no/stasjon", "api_source_url": "https://yx-webflow-sync.harald-d95.workers.dev/stations", "api_discovery_url": "https://cdn.cure.no/yx/init.js", "retrieved": "2026-09-24", "selected": true}, "geometry": {"type": "Point", "coordinates": [15.4018, 66.8133]}}, {"type": "Feature", "properties": {"id": "52231", "name": "CIRCLE K AUTOMAT VOSS", "chain": "Circle K", "lat": 60.628696, "lon": 6.424739, "address": "Uttrågata 29, 5700, Voss", "municipality": "VOSS", "county": "VESTLAND", "siteType": "ST", "status": "Active", "fuel_types": ["miles 95", "miles Diesel", "Anleggsdiesel"], "has_liquid_fuel": true, "source_url": "https://www.circlek.no/station/52231", "dataset_source_url": "https://www.circlek.no/station-search", "retrieved": "2026-09-24", "selected": true}, "geometry": {"type": "Point", "coordinates": [6.424739, 60.628696]}}, {"type": "Feature", "properties": {"id": "yx-69316c939657276bdbcc0d89", "name": "YX Treungen Syd", "lat": 59.0106, "lon": 8.53734, "chain": "YX", "address": "Treungvegen 253, 3855 TREUNGEN", "fuel_types": "95 Blyfri, Diesel, Avgiftsfri diesel", "has_liquid_fuel": true, "source_url": "https://www.yx.no/stasjon/yx-treungen-syd-10400590", "dataset_source_url": "https://www.yx.no/stasjon", "api_source_url": "https://yx-webflow-sync.harald-d95.workers.dev/stations", "api_discovery_url": "https://cdn.cure.no/yx/init.js", "retrieved": "2026-09-24", "selected": true}, "geometry": {"type": "Point", "coordinates": [8.53734, 59.0106]}}, {"type": "Feature", "properties": {"id": "52779", "name": "CIRCLE K LAKSELV", "chain": "Circle K", "lat": 70.05164, "lon": 24.967949, "address": "Georg Bjørklis vei 1, 9700, Lakselv", "municipality": "PORSANGER PORSÁNGU PORSAN", "county": "Finnmark", "siteType": "ST", "status": "Active", "fuel_types": ["EV Charger", "AdBlue", "miles 95", "miles Diesel", "milesPLUS Diesel", "Anleggsdiesel"], "has_liquid_fuel": true, "source_url": "https://www.circlek.no/station/52779", "dataset_source_url": "https://www.circlek.no/station-search", "retrieved": "2026-09-24", "selected": true}, "geometry": {"type": "Point", "coordinates": [24.967949, 70.05164]}}, {"type": "Feature", "properties": {"id": "yx-69316c939657276bdbcc0d05", "name": "YX Straumen (automat)", "lat": 67.3462, "lon": 15.5936, "chain": "YX", "address": "Sentrum 2, 8226 STRAUMEN", "fuel_types": "95 Blyfri, Diesel", "has_liquid_fuel": true, "source_url": "https://www.yx.no/stasjon/yx-straumen-automat-10400543", "dataset_source_url": "https://www.yx.no/stasjon", "api_source_url": "https://yx-webflow-sync.harald-d95.workers.dev/stations", "api_discovery_url": "https://cdn.cure.no/yx/init.js", "retrieved": "2026-09-24", "selected": true}, "geometry": {"type": "Point", "coordinates": [15.5936, 67.3462]}}, {"type": "Feature", "properties": {"id": "51261", "name": "CIRCLE K AUTOMAT NÆROSET", "chain": "Circle K", "lat": 60.980854, "lon": 10.786851, "address": "Åsmarkvegen 835, 2364, Næroset", "municipality": "RINGSAKER", "county": "INNLANDET", "siteType": "ST", "status": "Active", "fuel_types": ["miles 95", "miles Diesel", "Anleggsdiesel"], "has_liquid_fuel": true, "source_url": "https://www.circlek.no/station/51261", "dataset_source_url": "https://www.circlek.no/station-search", "retrieved": "2026-09-24", "selected": true}, "geometry": {"type": "Point", "coordinates": [10.786851, 60.980854]}}, {"type": "Feature", "properties": {"id": "52246", "name": "CIRCLE K AUTOMAT AUKRA", "chain": "Circle K", "lat": 62.81371, "lon": 6.883955, "address": "Riksfjordveien 107, 6480, Aukra", "municipality": "AUKRA", "county": "MØRE OG ROMSDAL", "siteType": "ST", "status": "Active", "fuel_types": ["miles 95", "miles Diesel", "milesPLUS Diesel", "Anleggsdiesel"], "has_liquid_fuel": true, "source_url": "https://www.circlek.no/station/52246", "dataset_source_url": "https://www.circlek.no/station-search", "retrieved": "2026-09-24", "selected": true}, "geometry": {"type": "Point", "coordinates": [6.883955, 62.81371]}}, {"type": "Feature", "properties": {"id": "52706", "name": "CIRCLE K E6 NORDKJOSBOTN", "chain": "Circle K", "lat": 69.21729, "lon": 19.557371, "address": "Sentrumsveien 14, 9040, Nordkjosbotn", "municipality": "BALSFJORD", "county": "Troms", "siteType": "ST", "status": "Active", "fuel_types": ["EV Charger", "AdBlue", "miles 95", "miles Diesel", "milesPLUS Diesel", "Anleggsdiesel"], "has_liquid_fuel": true, "source_url": "https://www.circlek.no/station/52706", "dataset_source_url": "https://www.circlek.no/station-search", "retrieved": "2026-09-24", "selected": true}, "geometry": {"type": "Point", "coordinates": [19.557371, 69.21729]}}, {"type": "Feature", "properties": {"id": "52798", "name": "CIRCLE K HESSENG", "chain": "Circle K", "lat": 69.687805, "lon": 29.986399, "address": "Mellomveien 4, 9912, Hesseng", "municipality": "SØR-VARANGER", "county": "Finnmark", "siteType": "ST", "status": "Active", "fuel_types": ["EV Charger", "AdBlue", "miles 95", "miles Diesel", "milesPLUS Diesel", "Anleggsdiesel"], "has_liquid_fuel": true, "source_url": "https://www.circlek.no/station/52798", "dataset_source_url": "https://www.circlek.no/station-search", "retrieved": "2026-09-24", "selected": true}, "geometry": {"type": "Point", "coordinates": [29.986399, 69.687805]}}, {"type": "Feature", "properties": {"id": "bunker-29", "chain": "Bunker Oil", "name": "Bunker Oil Hansnes", "lat": 69.960513, "lon": 19.609496, "address": ", , ", "description": "Blyfri 95, Autodiesel, Farget Diesel", "source_url": "https://bunkeroil.no/en/map-petrol-stations", "map_url": "https://www.google.com/maps/d/embed?mid=1lE7MJKdWIR5W2Jb10eNRFsKM536AdAji&ehbc=2E312F", "retrieved": "2026-09-24", "selected": true}, "geometry": {"type": "Point", "coordinates": [19.609496, 69.960513]}}, {"type": "Feature", "properties": {"id": "st1-skjervoy", "name": "St1 Skjervøy", "chain": "St1", "lat": 70.0259722, "lon": 20.97721622, "address": "Kveldsolveien 1, 9180 SKJERVØY", "fuel_types": ["Diesel", "Farget Diesel", "Truck AdBlue", "95 Bensin"], "source_url": "https://st1.no/stasjon/skjervy", "coordinate_source": "First-party station JSON-LD", "retrieved": "2026-09-24", "selected": true}, "geometry": {"type": "Point", "coordinates": [20.97721622, 70.0259722]}}, {"type": "Feature", "properties": {"id": "yx-69316c939657276bdbcc0d98", "name": "YX Drag", "lat": 68.0452, "lon": 16.0789, "chain": "YX", "address": "Dragsarmen 21, 8270 DRAG", "fuel_types": "95 Blyfri, Diesel, Avgiftsfri diesel", "has_liquid_fuel": true, "source_url": "https://www.yx.no/stasjon/yx-drag-10400598", "dataset_source_url": "https://www.yx.no/stasjon", "api_source_url": "https://yx-webflow-sync.harald-d95.workers.dev/stations", "api_discovery_url": "https://cdn.cure.no/yx/init.js", "retrieved": "2026-09-24", "selected": true}, "geometry": {"type": "Point", "coordinates": [16.0789, 68.0452]}}, {"type": "Feature", "properties": {"id": "unox-10500370", "name": "Uno-X Geilo", "chain": "Uno-X", "lat": 60.534112, "lon": 8.209405, "address": "Kyrkjevegen 1, 3580, Geilo", "source_url": "https://unox.no/finn-uno-x/lokasjon/10500370", "selected": true}, "geometry": {"type": "Point", "coordinates": [8.209405, 60.534112]}}, {"type": "Feature", "properties": {"id": "51188", "name": "CIRCLE K FLISA", "chain": "Circle K", "lat": 60.612851, "lon": 12.00513, "address": "Kjølabakken 32, 2270, Flisa", "municipality": "ÅSNES", "county": "INNLANDET", "siteType": "ST", "status": "Active", "fuel_types": ["AdBlue", "miles 95", "miles Diesel", "milesPLUS 98", "milesPLUS Diesel", "Anleggsdiesel"], "has_liquid_fuel": true, "source_url": "https://www.circlek.no/station/51188", "dataset_source_url": "https://www.circlek.no/station-search", "retrieved": "2026-09-24", "selected": true}, "geometry": {"type": "Point", "coordinates": [12.00513, 60.612851]}}, {"type": "Feature", "properties": {"id": "53944", "name": "CIRCLE K AUTOMAT NAMSSKOGAN", "chain": "Circle K", "lat": 64.933876, "lon": 13.167316, "address": "Kleist Geddes Vei 35, 7890, Namsskogan", "municipality": "NAMSSKOGAN", "county": "TRØNDELAG", "siteType": "ST", "status": "Active", "fuel_types": ["EV Charger", "AdBlue", "miles 95", "miles Diesel", "Anleggsdiesel"], "has_liquid_fuel": true, "source_url": "https://www.circlek.no/station/53944", "dataset_source_url": "https://www.circlek.no/station-search", "retrieved": "2026-09-24", "selected": true}, "geometry": {"type": "Point", "coordinates": [13.167316, 64.933876]}}, {"type": "Feature", "properties": {"id": "51753", "name": "CIRCLE K BØ I TELEMARK", "chain": "Circle K", "lat": 59.414337, "lon": 9.062585, "address": "Bøgata 30, 3800, Bø", "municipality": "MIDT-TELEMARK", "county": "Telemark", "siteType": "ST", "status": "Active", "fuel_types": ["miles 95", "miles Diesel", "milesPLUS Diesel", "Anleggsdiesel"], "has_liquid_fuel": true, "source_url": "https://www.circlek.no/station/51753", "dataset_source_url": "https://www.circlek.no/station-search", "retrieved": "2026-09-24", "selected": true}, "geometry": {"type": "Point", "coordinates": [9.062585, 59.414337]}}, {"type": "Feature", "properties": {"id": "52326", "name": "CIRCLE K ÅNDALSNES", "chain": "Circle K", "lat": 62.55955, "lon": 7.685359, "address": "Raumavegen 69, 6300, Åndalsnes", "municipality": "RAUMA", "county": "MØRE OG ROMSDAL", "siteType": "ST", "status": "Active", "fuel_types": ["EV Charger", "AdBlue", "miles 95", "miles Diesel", "milesPLUS Diesel", "Anleggsdiesel"], "has_liquid_fuel": true, "source_url": "https://www.circlek.no/station/52326", "dataset_source_url": "https://www.circlek.no/station-search", "retrieved": "2026-09-24", "selected": true}, "geometry": {"type": "Point", "coordinates": [7.685359, 62.55955]}}, {"type": "Feature", "properties": {"id": "51011", "name": "CIRCLE K EIDSVOLL VERK", "chain": "Circle K", "lat": 60.302258, "lon": 11.166405, "address": "Trondheimsvegen 336, 2074, Eidsvoll Verk", "municipality": "EIDSVOLL", "county": "Akershus", "siteType": "ST", "status": "Active", "fuel_types": ["EV Charger", "miles 95", "miles Diesel", "Anleggsdiesel"], "has_liquid_fuel": true, "source_url": "https://www.circlek.no/station/51011", "dataset_source_url": "https://www.circlek.no/station-search", "retrieved": "2026-09-24", "selected": true}, "geometry": {"type": "Point", "coordinates": [11.166405, 60.302258]}}, {"type": "Feature", "properties": {"id": "54697", "name": "CIRCLE K AUTOMAT RUSSENES", "chain": "Circle K", "lat": 70.47555, "lon": 25.068956, "address": "Vestre Porsangerveien 6094, 9713, Russenes", "municipality": "PORSANGER PORSÁNGU PORSAN", "county": "Finnmark", "siteType": "ST", "status": "Active", "fuel_types": ["miles 95", "miles Diesel", "Anleggsdiesel"], "has_liquid_fuel": true, "source_url": "https://www.circlek.no/station/54697", "dataset_source_url": "https://www.circlek.no/station-search", "retrieved": "2026-09-24", "selected": true}, "geometry": {"type": "Point", "coordinates": [25.068956, 70.47555]}}, {"type": "Feature", "properties": {"id": "yx-693ba182c63243f63f185fc9", "name": "YX Vuku", "lat": 63.7757, "lon": 11.7342, "chain": "YX", "address": "Bredingsberg 7, 7660 VUKU", "fuel_types": "95 Blyfri, Diesel, Avgiftsfri diesel", "has_liquid_fuel": true, "source_url": "https://www.yx.no/stasjon/yx-vuku-10400588", "dataset_source_url": "https://www.yx.no/stasjon", "api_source_url": "https://yx-webflow-sync.harald-d95.workers.dev/stations", "api_discovery_url": "https://cdn.cure.no/yx/init.js", "retrieved": "2026-09-24", "selected": true}, "geometry": {"type": "Point", "coordinates": [11.7342, 63.7757]}}, {"type": "Feature", "properties": {"id": "52075", "name": "CIRCLE K JØRPELAND", "chain": "Circle K", "lat": 59.021877, "lon": 6.035175, "address": "Nedre Barkvedvegen 17, 4100, Jørpeland", "municipality": "STRAND", "county": "ROGALAND", "siteType": "ST", "status": "Active", "fuel_types": ["miles 95", "miles Diesel", "milesPLUS Diesel", "Anleggsdiesel"], "has_liquid_fuel": true, "source_url": "https://www.circlek.no/station/52075", "dataset_source_url": "https://www.circlek.no/station-search", "retrieved": "2026-09-24", "selected": true}, "geometry": {"type": "Point", "coordinates": [6.035175, 59.021877]}}, {"type": "Feature", "properties": {"id": "52695", "name": "CIRCLE K ELVEBAKKEN", "chain": "Circle K", "lat": 69.973694, "lon": 23.36567, "address": "Altaveien 261, 9515, Alta", "municipality": "ALTA", "county": "Finnmark", "siteType": "ST", "status": "Active", "fuel_types": ["AdBlue", "miles 95", "miles Diesel", "milesPLUS Diesel", "Anleggsdiesel"], "has_liquid_fuel": true, "source_url": "https://www.circlek.no/station/52695", "dataset_source_url": "https://www.circlek.no/station-search", "retrieved": "2026-09-24", "selected": true}, "geometry": {"type": "Point", "coordinates": [23.36567, 69.973694]}}, {"type": "Feature", "properties": {"id": "51201", "name": "CIRCLE K AUTOMAT HALDEN", "chain": "Circle K", "lat": 59.12067, "lon": 11.390664, "address": "Kirkebakken 8-10, 1767, Halden", "municipality": "HALDEN", "county": "Østfold", "siteType": "ST", "status": "Active", "fuel_types": ["miles 95", "miles Diesel"], "has_liquid_fuel": true, "source_url": "https://www.circlek.no/station/51201", "dataset_source_url": "https://www.circlek.no/station-search", "retrieved": "2026-09-24", "selected": true}, "geometry": {"type": "Point", "coordinates": [11.390664, 59.12067]}}, {"type": "Feature", "properties": {"id": "52712", "name": "CIRCLE K SETERMOEN", "chain": "Circle K", "lat": 68.863396, "lon": 18.345873, "address": "Fogd Holmboes gate 52, 9360, Bardu", "municipality": "BARDU", "county": "Troms", "siteType": "ST", "status": "Active", "fuel_types": ["miles 95", "miles Diesel", "Anleggsdiesel"], "has_liquid_fuel": true, "source_url": "https://www.circlek.no/station/52712", "dataset_source_url": "https://www.circlek.no/station-search", "retrieved": "2026-09-24", "selected": true}, "geometry": {"type": "Point", "coordinates": [18.345873, 68.863396]}}, {"type": "Feature", "properties": {"id": "51996", "name": "CIRCLE K SÆVELANDSVIK", "chain": "Circle K", "lat": 59.269283, "lon": 5.201284, "address": "Nylandvegen 1, 4275, Sævelandsvik", "municipality": "KARMØY", "county": "ROGALAND", "siteType": "ST", "status": "Active", "fuel_types": ["miles 95", "miles Diesel", "milesPLUS Diesel"], "has_liquid_fuel": true, "source_url": "https://www.circlek.no/station/51996", "dataset_source_url": "https://www.circlek.no/station-search", "retrieved": "2026-09-24", "selected": true}, "geometry": {"type": "Point", "coordinates": [5.201284, 59.269283]}}, {"type": "Feature", "properties": {"id": "52575", "name": "CIRCLE K AUTOMAT BREKKEN", "chain": "Circle K", "lat": 62.646275, "lon": 11.866314, "address": "Mellomriksveien 1, 7370, Brekkebygd", "municipality": "RØROS", "county": "TRØNDELAG", "siteType": "ST", "status": "Active", "fuel_types": ["miles 95", "miles Diesel", "Anleggsdiesel"], "has_liquid_fuel": true, "source_url": "https://www.circlek.no/station/52575", "dataset_source_url": "https://www.circlek.no/station-search", "retrieved": "2026-09-24", "selected": true}, "geometry": {"type": "Point", "coordinates": [11.866314, 62.646275]}}, {"type": "Feature", "properties": {"id": "55652", "name": "CIRCLE K HAUKELI", "chain": "Circle K", "lat": 59.736949, "lon": 7.563892, "address": "Storegutvegen 256, 3895, Edland", "municipality": "VINJE", "county": "Telemark", "siteType": "ST", "status": "Active", "fuel_types": ["AdBlue", "miles 95", "miles Diesel", "Anleggsdiesel"], "has_liquid_fuel": true, "source_url": "https://www.circlek.no/station/55652", "dataset_source_url": "https://www.circlek.no/station-search", "retrieved": "2026-09-24", "selected": true}, "geometry": {"type": "Point", "coordinates": [7.563892, 59.736949]}}, {"type": "Feature", "properties": {"id": "bunker-53", "chain": "Bunker Oil", "name": "Bunker Oil Skåbu", "lat": 61.523989, "lon": 9.406, "address": "Skåbuvegen, 2643, Skåbu", "description": "Blyfri 95, Autodiesel, Farget Diesel, Hurtigleverende dieselpumpe", "source_url": "https://bunkeroil.no/en/map-petrol-stations", "map_url": "https://www.google.com/maps/d/embed?mid=1lE7MJKdWIR5W2Jb10eNRFsKM536AdAji&ehbc=2E312F", "retrieved": "2026-09-24", "selected": true}, "geometry": {"type": "Point", "coordinates": [9.406, 61.523989]}}, {"type": "Feature", "properties": {"id": "52592", "name": "CIRCLE K AUTOMAT SNÅSA", "chain": "Circle K", "lat": 64.24631, "lon": 12.387504, "address": "Øverbygdveien 22, 7760, Snåsa", "municipality": "SNÅSA", "county": "TRØNDELAG", "siteType": "ST", "status": "Active", "fuel_types": ["miles 95", "miles Diesel", "Anleggsdiesel"], "has_liquid_fuel": true, "source_url": "https://www.circlek.no/station/52592", "dataset_source_url": "https://www.circlek.no/station-search", "retrieved": "2026-09-24", "selected": true}, "geometry": {"type": "Point", "coordinates": [12.387504, 64.24631]}}, {"type": "Feature", "properties": {"id": "57055", "name": "CIRCLE K AUTOMAT AURLAND", "chain": "Circle K", "lat": 60.898808, "lon": 7.210915, "address": "Skulevegen 58, 5745, Aurland", "municipality": "AURLAND", "county": "VESTLAND", "siteType": "ST", "status": "Active", "fuel_types": ["EV Charger", "miles 95", "miles Diesel"], "has_liquid_fuel": true, "source_url": "https://www.circlek.no/station/57055", "dataset_source_url": "https://www.circlek.no/station-search", "retrieved": "2026-09-24", "selected": true}, "geometry": {"type": "Point", "coordinates": [7.210915, 60.898808]}}, {"type": "Feature", "properties": {"id": "52411", "name": "CIRCLE K AUTOMAT HOMMELSTØ", "chain": "Circle K", "lat": 65.40359, "lon": 12.547688, "address": "Rugåshylla 3, 8960, Velfjord", "municipality": "BRØNNØY", "county": "NORDLAND", "siteType": "ST", "status": "Active", "fuel_types": ["EV Charger", "miles 95", "miles Diesel", "Anleggsdiesel"], "has_liquid_fuel": true, "source_url": "https://www.circlek.no/station/52411", "dataset_source_url": "https://www.circlek.no/station-search", "retrieved": "2026-09-24", "selected": true}, "geometry": {"type": "Point", "coordinates": [12.547688, 65.40359]}}, {"type": "Feature", "properties": {"id": "yx-69316c98cb6978a89c073b34", "name": "YX Birtavarre (automat)", "lat": 69.4943, "lon": 20.829, "chain": "YX", "address": "Stiger Pettersens veg 1, 9147 BIRTAVARRE", "fuel_types": "95 Blyfri, Diesel, Avgiftsfri diesel, Ad Blue", "has_liquid_fuel": true, "source_url": "https://www.yx.no/stasjon/yx-birtavarre-automat-10400883", "dataset_source_url": "https://www.yx.no/stasjon", "api_source_url": "https://yx-webflow-sync.harald-d95.workers.dev/stations", "api_discovery_url": "https://cdn.cure.no/yx/init.js", "retrieved": "2026-09-24", "selected": true}, "geometry": {"type": "Point", "coordinates": [20.829, 69.4943]}}, {"type": "Feature", "properties": {"id": "52723", "name": "CIRCLE K AUTOMAT BÅTSFJORD", "chain": "Circle K", "lat": 70.62991, "lon": 29.705257, "address": "Valen 3, 9990, Båtsfjord", "municipality": "BÅTSFJORD", "county": "Finnmark", "siteType": "ST", "status": "Active", "fuel_types": ["miles 95", "miles Diesel", "Anleggsdiesel"], "has_liquid_fuel": true, "source_url": "https://www.circlek.no/station/52723", "dataset_source_url": "https://www.circlek.no/station-search", "retrieved": "2026-09-24", "selected": true}, "geometry": {"type": "Point", "coordinates": [29.705257, 70.62991]}}, {"type": "Feature", "properties": {"id": "unox-10500742", "name": "Uno-X Hammerfest", "chain": "Uno-X", "lat": 70.65241355469725, "lon": 23.66255789995194, "address": "Storsvingen 4, 9610, Rypefjord", "source_url": "https://unox.no/finn-uno-x/lokasjon/10500742", "selected": true}, "geometry": {"type": "Point", "coordinates": [23.66255789995194, 70.65241355469725]}}]}